Address,Date time,Minimum Temperature,Maximum Temperature,Temperature,Dew Point,Relative Humidity,Heat Index,Wind Speed,Wind Gust,Wind Direction,Wind Chill,Precipitation,Precipitation Cover,Snow Depth,Visibility,Cloud Cover,Sea Level Pressure,Weather Type,Latitude,Longitude,Resolved Address,Name,Info,Conditions
"Mazatlan,MX",04/08/2005 03:00:00,68.6,68.6,68.6,66.8,93.99,,4.5,,120.0,,0.0,,,6.2,0.0,,,23.2,-106.422,"Mazatlán, SIN, México","Mazatlán, SIN, México",,Clear
"Mazatlan,MX",04/08/2005 04:00:00,,,,,,,,,,,0.0,,,,,,,23.2,-106.422,"Mazatlán, SIN, México","Mazatlán, SIN, México",,
"Mazatlan,MX",04/08/2005 05:00:00,,,,,,,,,,,0.0,,,,,,,23.2,-106.422,"Mazatlán, SIN, México","Mazatlán, SIN, México",,
"Mazatlan,MX",04/08/2005 06:00:00,66.3,66.3,66.3,64.7,94.52,,4.5,,330.0,,0.0,,,5.0,0.0,,,23.2,-106.422,"Mazatlán, SIN, México","Mazatlán, SIN, México",,Clear
"Mazatlan,MX",04/08/2005 07:00:00,62.7,62.7,62.7,59.1,88.02,,0.0,,,,0.0,,,6.2,90.0,1012.9,Mist,23.2,-106.422,"Mazatlán, SIN, México","Mazatlán, SIN, México",,Overcast
"Mazatlan,MX",04/08/2005 08:00:00,,,,,,,,,,,0.0,,,,,,,23.2,-106.422,"Mazatlán, SIN, México","Mazatlán, SIN, México",,
"Mazatlan,MX",04/08/2005 09:00:00,71.7,71.7,71.7,62.7,73.3,,3.4,,140.0,,0.0,,,8.1,50.0,1013.2,,23.2,-106.422,"Mazatlán, SIN, México","Mazatlán, SIN, México",,Partially cloudy
"Mazatlan,MX",04/08/2005 10:00:00,,,,,,,,,,,0.0,,,,,,,23.2,-106.422,"Mazatlán, SIN, México","Mazatlán, SIN, México",,
"Mazatlan,MX",04/08/2005 11:00:00,,,,,,,,,,,0.0,,,,,,,23.2,-106.422,"Mazatlán, SIN, México","Mazatlán, SIN, México",,
"Mazatlan,MX",04/08/2005 12:00:00,81.2,81.2,81.2,62.3,52.71,82.3,6.7,,180.0,,0.0,,,6.2,50.0,1011.9,,23.2,-106.422,"Mazatlán, SIN, México","Mazatlán, SIN, México",,Partially cloudy
"Mazatlan,MX",04/08/2005 13:00:00,,,,,,,,,,,0.0,,,,,,,23.2,-106.422,"Mazatlán, SIN, México","Mazatlán, SIN, México",,
"Mazatlan,MX",04/08/2005 14:00:00,,,,,,,,,,,0.0,,,,,,,23.2,-106.422,"Mazatlán, SIN, México","Mazatlán, SIN, México",,
"Mazatlan,MX",04/08/2005 15:00:00,72.6,72.6,72.6,65.0,77.13,,6.7,,300.0,,0.0,,,6.2,60.0,1009.5,,23.2,-106.422,"Mazatlán, SIN, México","Mazatlán, SIN, México",,Partially cloudy
"Mazatlan,MX",04/08/2005 16:00:00,,,,,,,,,,,0.0,,,,,,,23.2,-106.422,"Mazatlán, SIN, México","Mazatlán, SIN, México",,
"Mazatlan,MX",04/08/2005 17:00:00,,,,,,,,,,,0.0,,,,,,,23.2,-106.422,"Mazatlán, SIN, México","Mazatlán, SIN, México",,
"Mazatlan,MX",04/08/2005 18:00:00,,,,,,,,,,,0.0,,,,,,,23.2,-106.422,"Mazatlán, SIN, México","Mazatlán, SIN, México",,
"Mazatlan,MX",04/08/2005 19:00:00,,,,,,,,,,,0.0,,,,,,,23.2,-106.422,"Mazatlán, SIN, México","Mazatlán, SIN, México",,
"Mazatlan,MX",04/08/2005 20:00:00,,,,,,,,,,,0.0,,,,,,,23.2,-106.422,"Mazatlán, SIN, México","Mazatlán, SIN, México",,
"Torreon,MX",04/08/2005 04:00:00,62.7,62.7,62.7,41.6,46.03,,0.0,,,,0.0,,,6.2,0.0,,,25.5394,-103.453,"Torreón, COAH, México","Torreón, COAH, México",,Clear
"Torreon,MX",04/08/2005 05:00:00,,,,,,,,,,,0.0,,,,,,,25.5394,-103.453,"Torreón, COAH, México","Torreón, COAH, México",,
"Torreon,MX",04/08/2005 06:00:00,,,,,,,,,,,0.0,,,,,,,25.5394,-103.453,"Torreón, COAH, México","Torreón, COAH, México",,
"Torreon,MX",04/08/2005 07:00:00,60.2,60.2,60.2,39.8,46.94,,0.0,,,,0.0,,,6.2,0.0,,,25.5394,-103.453,"Torreón, COAH, México","Torreón, COAH, México",,Clear
"Torreon,MX",04/08/2005 08:00:00,,,,,,,,,,,0.0,,,,,,,25.5394,-103.453,"Torreón, COAH, México","Torreón, COAH, México",,
"Torreon,MX",04/08/2005 09:00:00,,,,,,,,,,,0.0,,,,,,,25.5394,-103.453,"Torreón, COAH, México","Torreón, COAH, México",,
"Torreon,MX",04/08/2005 10:00:00,,,,,,,,,,,0.0,,,,,,,25.5394,-103.453,"Torreón, COAH, México","Torreón, COAH, México",,
"Torreon,MX",04/08/2005 11:00:00,,,,,,,,,,,0.0,,,,,,,25.5394,-103.453,"Torreón, COAH, México","Torreón, COAH, México",,
"Torreon,MX",04/08/2005 12:00:00,,,,,,,,,,,0.0,,,,,,,25.5394,-103.453,"Torreón, COAH, México","Torreón, COAH, México",,
"Torreon,MX",04/08/2005 13:00:00,81.2,81.2,81.2,44.0,26.89,79.7,4.5,,270.0,,0.0,,,18.6,90.0,,,25.5394,-103.453,"Torreón, COAH, México","Torreón, COAH, México",,Overcast
"Torreon,MX",04/08/2005 14:00:00,,,,,,,,,,,0.0,,,,,,,25.5394,-103.453,"Torreón, COAH, México","Torreón, COAH, México",,
"Torreon,MX",04/08/2005 15:00:00,,,,,,,,,,,0.0,,,,,,,25.5394,-103.453,"Torreón, COAH, México","Torreón, COAH, México",,
"Torreon,MX",04/08/2005 16:00:00,,,,,,,,,,,0.0,,,,,,,25.5394,-103.453,"Torreón, COAH, México","Torreón, COAH, México",,
"Torreon,MX",04/08/2005 17:00:00,,,,,,,,,,,0.0,,,,,,,25.5394,-103.453,"Torreón, COAH, México","Torreón, COAH, México",,
"Torreon,MX",04/08/2005 18:00:00,,,,,,,,,,,0.0,,,,,,,25.5394,-103.453,"Torreón, COAH, México","Torreón, COAH, México",,
"Torreon,MX",04/08/2005 19:00:00,,,,,,,,,,,0.0,,,,,,,25.5394,-103.453,"Torreón, COAH, México","Torreón, COAH, México",,
"Torreon,MX",04/08/2005 20:00:00,89.7,89.7,89.7,50.1,25.83,86.8,0.0,,,,0.0,,,14.9,90.0,1008.8,,25.5394,-103.453,"Torreón, COAH, México","Torreón, COAH, México",,Overcast
"Torreon,MX",04/08/2005 21:00:00,,,,,,,,,,,0.0,,,,,,,25.5394,-103.453,"Torreón, COAH, México","Torreón, COAH, México",,
"San Antonio,TX,US",04/08/2005 00:00:00,59.2,59.2,59.2,41.3,51.35,,5.9,,308.0,,0.0,,0.0,9.9,0.0,1016.5,,29.4246,-98.4946,"San Antonio, TX, United States","San Antonio, TX, United States",,Clear
"San Antonio,TX,US",04/08/2005 01:00:00,56.0,56.0,56.0,42.9,61.32,,3.4,,311.0,,0.0,,0.0,9.9,0.0,1016.5,,29.4246,-98.4946,"San Antonio, TX, United States","San Antonio, TX, United States",,Clear
"San Antonio,TX,US",04/08/2005 02:00:00,54.3,54.3,54.3,42.4,64.12,,3.5,,320.0,,0.0,,0.0,9.9,0.0,1016.0,,29.4246,-98.4946,"San Antonio, TX, United States","San Antonio, TX, United States",,Clear
"San Antonio,TX,US",04/08/2005 03:00:00,52.6,52.6,52.6,42.4,68.09,,5.5,,307.0,,0.0,,0.0,9.9,0.0,1015.5,,29.4246,-98.4946,"San Antonio, TX, United States","San Antonio, TX, United States",,Clear
"San Antonio,TX,US",04/08/2005 04:00:00,51.2,51.2,51.2,41.8,70.31,,2.6,,311.0,,0.0,,0.0,9.9,0.0,1015.7,,29.4246,-98.4946,"San Antonio, TX, United States","San Antonio, TX, United States",,Clear
"San Antonio,TX,US",04/08/2005 05:00:00,50.8,50.8,50.8,41.9,71.31,,2.6,,311.0,,0.0,,0.0,9.9,0.0,1015.1,,29.4246,-98.4946,"San Antonio, TX, United States","San Antonio, TX, United States",,Clear
"San Antonio,TX,US",04/08/2005 06:00:00,50.1,50.1,50.1,41.3,71.79,,2.9,,313.0,,0.0,,0.0,9.9,0.0,1015.1,,29.4246,-98.4946,"San Antonio, TX, United States","San Antonio, TX, United States",,Clear
"San Antonio,TX,US",04/08/2005 07:00:00,48.1,48.1,48.1,41.8,78.81,,0.2,,322.0,,0.0,,0.0,9.9,30.3,1015.3,,29.4246,-98.4946,"San Antonio, TX, United States","San Antonio, TX, United States",,Partially cloudy
"San Antonio,TX,US",04/08/2005 08:00:00,51.4,51.4,51.4,42.7,72.17,,1.8,,328.0,,0.0,,0.0,9.9,16.9,1015.9,,29.4246,-98.4946,"San Antonio, TX, United States","San Antonio, TX, United States",,Clear
"San Antonio,TX,US",04/08/2005 09:00:00,57.6,57.6,57.6,47.8,69.84,,0.1,,30.0,,0.0,,0.0,9.9,16.9,1016.4,,29.4246,-98.4946,"San Antonio, TX, United States","San Antonio, TX, United States",,Clear
"San Antonio,TX,US",04/08/2005 10:00:00,68.7,68.7,68.7,48.7,48.75,,5.8,,74.0,,0.0,,0.0,9.9,30.3,1016.7,,29.4246,-98.4946,"San Antonio, TX, United States","San Antonio, TX, United States",,Partially cloudy
"San Antonio,TX,US",04/08/2005 11:00:00,72.7,72.7,72.7,51.4,47.27,,6.6,,120.0,,0.0,,0.0,9.9,16.9,1016.5,,29.4246,-98.4946,"San Antonio, TX, United States","San Antonio, TX, United States",,Clear
"San Antonio,TX,US",04/08/2005 12:00:00,74.3,74.3,74.3,50.7,43.55,,8.1,,123.0,,0.0,,0.0,9.9,33.7,1015.9,,29.4246,-98.4946,"San Antonio, TX, United States","San Antonio, TX, United States",,Partially cloudy
"San Antonio,TX,US",04/08/2005 13:00:00,76.3,76.3,76.3,49.0,38.23,,8.1,,120.0,,0.0,,0.0,9.9,30.3,1015.1,,29.4246,-98.4946,"San Antonio, TX, United States","San Antonio, TX, United States",,Partially cloudy
"San Antonio,TX,US",04/08/2005 14:00:00,77.8,77.8,77.8,48.2,35.31,,5.9,,142.0,,0.0,,0.0,9.9,16.9,1014.1,,29.4246,-98.4946,"San Antonio, TX, United States","San Antonio, TX, United States",,Clear
"San Antonio,TX,US",04/08/2005 15:00:00,80.7,80.7,80.7,48.1,31.98,79.8,8.4,,132.0,,0.0,,0.0,9.9,33.7,1012.6,,29.4246,-98.4946,"San Antonio, TX, United States","San Antonio, TX, United States",,Partially cloudy
"San Antonio,TX,US",04/08/2005 16:00:00,80.2,80.2,80.2,47.8,32.17,79.5,9.9,,172.0,,0.0,,0.0,9.9,33.7,1011.4,,29.4246,-98.4946,"San Antonio, TX, United States","San Antonio, TX, United States",,Partially cloudy
"San Antonio,TX,US",04/08/2005 17:00:00,79.6,79.6,79.6,47.3,32.09,,10.7,,158.0,,0.0,,0.0,9.9,33.7,1010.4,,29.4246,-98.4946,"San Antonio, TX, United States","San Antonio, TX, United States",,Partially cloudy
"San Antonio,TX,US",04/08/2005 18:00:00,79.4,79.4,79.4,49.2,34.83,,11.9,,148.0,,0.0,,0.0,9.9,33.7,1008.9,,29.4246,-98.4946,"San Antonio, TX, United States","San Antonio, TX, United States",,Partially cloudy
"San Antonio,TX,US",04/08/2005 19:00:00,77.4,77.4,77.4,49.2,37.13,,10.9,,141.0,,0.0,,0.0,9.9,33.7,1008.9,,29.4246,-98.4946,"San Antonio, TX, United States","San Antonio, TX, United States",,Partially cloudy
"San Antonio,TX,US",04/08/2005 20:00:00,72.3,72.3,72.3,49.6,44.68,,7.6,,144.0,,0.0,,0.0,9.9,33.7,1009.2,,29.4246,-98.4946,"San Antonio, TX, United States","San Antonio, TX, United States",,Partially cloudy
"San Antonio,TX,US",04/08/2005 21:00:00,66.0,66.0,66.0,51.7,60.02,,6.3,,111.0,,0.0,,0.0,9.9,16.9,1009.3,,29.4246,-98.4946,"San Antonio, TX, United States","San Antonio, TX, United States",,Clear
"San Antonio,TX,US",04/08/2005 22:00:00,66.2,66.2,66.2,52.2,60.73,,10.4,,133.0,,0.0,,0.0,9.9,10.1,1009.9,,29.4246,-98.4946,"San Antonio, TX, United States","San Antonio, TX, United States",,Clear
"San Antonio,TX,US",04/08/2005 23:00:00,65.0,65.0,65.0,55.0,70.07,,8.8,,147.0,,0.0,,0.0,9.9,10.1,1010.6,,29.4246,-98.4946,"San Antonio, TX, United States","San Antonio, TX, United States",,Clear
"Austin,TX,US",04/08/2005 00:00:00,64.3,64.3,64.3,45.8,51.09,,3.6,,310.0,,0.0,,0.0,9.9,0.0,1016.2,,30.2676,-97.743,"Austin, TX, United States","Austin, TX, United States",,Clear
"Austin,TX,US",04/08/2005 01:00:00,61.7,61.7,61.7,46.1,56.5,,5.6,,298.0,,0.0,,0.0,9.9,0.0,1016.2,,30.2676,-97.743,"Austin, TX, United States","Austin, TX, United States",,Clear
"Austin,TX,US",04/08/2005 02:00:00,60.1,60.1,60.1,45.8,59.11,,6.4,,296.0,,0.0,,0.0,9.9,0.0,1015.8,,30.2676,-97.743,"Austin, TX, United States","Austin, TX, United States",,Clear
"Austin,TX,US",04/08/2005 03:00:00,59.2,59.2,59.2,45.8,61.06,,3.4,,291.0,,0.0,,0.0,9.9,0.0,1015.5,,30.2676,-97.743,"Austin, TX, United States","Austin, TX, United States",,Clear
"Austin,TX,US",04/08/2005 04:00:00,57.0,57.0,57.0,45.8,66.06,,0.0,,310.0,,0.0,,0.0,9.9,0.0,1015.5,,30.2676,-97.743,"Austin, TX, United States","Austin, TX, United States",,Clear
"Austin,TX,US",04/08/2005 05:00:00,55.3,55.3,55.3,45.6,69.57,,3.7,,308.0,,0.0,,0.0,9.9,0.0,1015.5,,30.2676,-97.743,"Austin, TX, United States","Austin, TX, United States",,Clear
"Austin,TX,US",04/08/2005 06:00:00,54.1,54.1,54.1,45.4,72.11,,0.0,,320.0,,0.0,,0.0,9.9,0.0,1015.5,,30.2676,-97.743,"Austin, TX, United States","Austin, TX, United States",,Clear
"Austin,TX,US",04/08/2005 07:00:00,51.8,51.8,51.8,45.4,78.6,,0.0,,310.0,,0.0,,0.0,9.7,29.2,1015.1,,30.2676,-97.743,"Austin, TX, United States","Austin, TX, United States",,Partially cloudy
"Austin,TX,US",04/08/2005 08:00:00,53.9,53.9,53.9,45.6,73.22,,2.6,,290.0,,0.0,,0.0,9.9,11.5,1016.2,,30.2676,-97.743,"Austin, TX, United States","Austin, TX, United States",,Clear
"Austin,TX,US",04/08/2005 09:00:00,60.4,60.4,60.4,47.7,63.0,,9.8,,321.0,,0.0,,0.0,9.9,6.9,1016.2,,30.2676,-97.743,"Austin, TX, United States","Austin, TX, United States",,Clear
"Austin,TX,US",04/08/2005 10:00:00,66.8,66.8,66.8,50.8,56.26,,3.6,,239.0,,0.0,,0.0,9.9,11.5,1016.8,,30.2676,-97.743,"Austin, TX, United States","Austin, TX, United States",,Clear
"Austin,TX,US",04/08/2005 11:00:00,71.0,71.0,71.0,53.5,53.93,,4.4,,170.0,,0.0,,0.0,9.9,20.8,1017.2,,30.2676,-97.743,"Austin, TX, United States","Austin, TX, United States",,Clear
"Austin,TX,US",04/08/2005 12:00:00,74.9,74.9,74.9,55.0,50.01,,8.1,,128.0,,0.0,,0.0,9.9,87.7,1016.5,,30.2676,-97.743,"Austin, TX, United States","Austin, TX, United States",,Overcast
"Austin,TX,US",04/08/2005 13:00:00,75.8,75.8,75.8,53.5,45.79,,5.5,,130.0,,0.0,,0.0,9.9,20.8,1015.1,,30.2676,-97.743,"Austin, TX, United States","Austin, TX, United States",,Clear
"Austin,TX,US",04/08/2005 14:00:00,75.7,75.7,75.7,53.7,46.34,,5.0,,122.0,,0.0,,0.0,9.9,20.8,1014.1,,30.2676,-97.743,"Austin, TX, United States","Austin, TX, United States",,Clear
"Austin,TX,US",04/08/2005 15:00:00,78.2,78.2,78.2,53.5,42.36,,5.0,,209.0,,0.0,,0.0,9.9,20.8,1013.1,,30.2676,-97.743,"Austin, TX, United States","Austin, TX, United States",,Clear
"Austin,TX,US",04/08/2005 16:00:00,78.6,78.6,78.6,51.6,38.99,,3.6,,190.0,,0.0,,0.0,9.9,20.8,1011.8,,30.2676,-97.743,"Austin, TX, United States","Austin, TX, United States",,Clear
"Austin,TX,US",04/08/2005 17:00:00,77.6,77.6,77.6,51.2,39.82,,5.5,,131.0,,0.0,,0.0,9.9,20.8,1010.8,,30.2676,-97.743,"Austin, TX, United States","Austin, TX, United States",,Clear
"Austin,TX,US",04/08/2005 18:00:00,76.6,76.6,76.6,52.1,42.41,,10.3,,150.0,,0.0,,0.0,9.9,20.8,1009.1,,30.2676,-97.743,"Austin, TX, United States","Austin, TX, United States",,Clear
"Austin,TX,US",04/08/2005 19:00:00,75.2,75.2,75.2,52.1,44.48,,8.1,,172.0,,0.0,,0.0,9.9,20.8,1009.7,,30.2676,-97.743,"Austin, TX, United States","Austin, TX, United States",,Clear
"Austin,TX,US",04/08/2005 20:00:00,73.3,73.3,73.3,52.3,47.66,,7.6,,142.0,,0.0,,0.0,9.9,20.8,1009.4,,30.2676,-97.743,"Austin, TX, United States","Austin, TX, United States",,Clear
"Austin,TX,US",04/08/2005 21:00:00,70.7,70.7,70.7,53.0,53.39,,6.9,,140.0,,0.0,,0.0,9.9,6.9,1009.6,,30.2676,-97.743,"Austin, TX, United States","Austin, TX, United States",,Clear
"Austin,TX,US",04/08/2005 22:00:00,67.5,67.5,67.5,52.1,57.76,,7.5,,142.0,,0.0,,0.0,9.9,0.0,1010.1,,30.2676,-97.743,"Austin, TX, United States","Austin, TX, United States",,Clear
"Austin,TX,US",04/08/2005 23:00:00,64.3,64.3,64.3,52.5,65.46,,1.1,,219.0,,0.0,,0.0,9.9,0.0,1010.5,,30.2676,-97.743,"Austin, TX, United States","Austin, TX, United States",,Clear
"Fort Worth,TX,US",04/08/2005 00:00:00,61.0,61.0,61.0,50.2,67.58,,0.4,,290.0,,0.0,,0.0,9.9,0.0,1015.9,,32.7509,-97.3309,"Fort Worth, TX, United States","Fort Worth, TX, United States",,Clear
"Fort Worth,TX,US",04/08/2005 01:00:00,59.2,59.2,59.2,50.2,72.05,,4.9,,348.0,,0.0,,0.0,9.9,0.0,1015.9,,32.7509,-97.3309,"Fort Worth, TX, United States","Fort Worth, TX, United States",,Clear
"Fort Worth,TX,US",04/08/2005 02:00:00,55.6,55.6,55.6,48.5,76.93,,4.8,,321.0,,0.0,,0.0,9.9,0.0,1015.6,,32.7509,-97.3309,"Fort Worth, TX, United States","Fort Worth, TX, United States",,Clear
"Fort Worth,TX,US",04/08/2005 03:00:00,55.6,55.6,55.6,48.4,76.75,,5.9,,300.0,,0.0,,0.0,9.9,0.0,1015.2,,32.7509,-97.3309,"Fort Worth, TX, United States","Fort Worth, TX, United States",,Clear
"Fort Worth,TX,US",04/08/2005 04:00:00,51.9,51.9,51.9,48.3,87.38,,3.6,,284.0,,0.0,,0.0,9.9,0.0,1014.6,,32.7509,-97.3309,"Fort Worth, TX, United States","Fort Worth, TX, United States",,Clear
"Fort Worth,TX,US",04/08/2005 05:00:00,53.6,53.6,53.6,44.9,72.21,,5.8,,38.0,,0.0,,0.0,9.9,0.0,1014.2,,32.7509,-97.3309,"Fort Worth, TX, United States","Fort Worth, TX, United States",,Clear
"Fort Worth,TX,US",04/08/2005 06:00:00,52.5,52.5,52.5,45.4,76.75,,1.1,,310.0,,0.0,,0.0,8.9,9.9,1014.0,,32.7509,-97.3309,"Fort Worth, TX, United States","Fort Worth, TX, United States",,Clear
"Fort Worth,TX,US",04/08/2005 07:00:00,51.9,51.9,51.9,45.4,78.34,,1.5,,330.0,,0.0,,0.0,8.9,13.2,1015.2,,32.7509,-97.3309,"Fort Worth, TX, United States","Fort Worth, TX, United States",,Clear
"Fort Worth,TX,US",04/08/2005 08:00:00,52.1,52.1,52.1,45.0,76.73,,0.2,,260.0,,0.0,,0.0,9.9,5.0,1015.6,,32.7509,-97.3309,"Fort Worth, TX, United States","Fort Worth, TX, United States",,Clear
"Fort Worth,TX,US",04/08/2005 09:00:00,57.4,57.4,57.4,49.0,73.67,,0.0,,,,0.0,,0.0,8.9,32.9,1016.0,,32.7509,-97.3309,"Fort Worth, TX, United States","Fort Worth, TX, United States",,Partially cloudy
"Fort Worth,TX,US",04/08/2005 10:00:00,63.8,63.8,63.8,52.6,66.7,,6.9,,128.0,,0.0,,0.0,8.9,36.2,1016.0,,32.7509,-97.3309,"Fort Worth, TX, United States","Fort Worth, TX, United States",,Partially cloudy
"Fort Worth,TX,US",04/08/2005 11:00:00,67.6,67.6,67.6,52.7,58.81,,7.5,,146.0,,0.0,,0.0,8.9,36.2,1016.0,,32.7509,-97.3309,"Fort Worth, TX, United States","Fort Worth, TX, United States",,Partially cloudy
"Fort Worth,TX,US",04/08/2005 12:00:00,70.5,70.5,70.5,53.8,55.57,,9.0,,133.0,,0.0,,0.0,8.9,36.6,1015.3,,32.7509,-97.3309,"Fort Worth, TX, United States","Fort Worth, TX, United States",,Partially cloudy
"Fort Worth,TX,US",04/08/2005 13:00:00,72.4,72.4,72.4,53.8,52.04,,6.6,,156.0,,0.0,,0.0,8.9,36.6,1014.6,,32.7509,-97.3309,"Fort Worth, TX, United States","Fort Worth, TX, United States",,Partially cloudy
"Fort Worth,TX,US",04/08/2005 14:00:00,74.1,74.1,74.1,53.8,49.18,,10.3,,169.0,,0.0,,0.0,8.9,33.3,1013.3,,32.7509,-97.3309,"Fort Worth, TX, United States","Fort Worth, TX, United States",,Partially cloudy
"Fort Worth,TX,US",04/08/2005 15:00:00,74.3,74.3,74.3,51.5,44.88,,7.7,,186.0,,0.0,,0.0,8.9,33.3,1012.9,,32.7509,-97.3309,"Fort Worth, TX, United States","Fort Worth, TX, United States",,Partially cloudy
"Fort Worth,TX,US",04/08/2005 16:00:00,75.3,75.3,75.3,51.2,42.91,,9.1,,137.0,,0.0,,0.0,8.9,33.3,1011.0,,32.7509,-97.3309,"Fort Worth, TX, United States","Fort Worth, TX, United States",,Partially cloudy
"Fort Worth,TX,US",04/08/2005 17:00:00,77.0,77.0,77.0,52.3,42.29,,13.6,,144.0,,0.0,,0.0,8.9,33.3,1009.6,,32.7509,-97.3309,"Fort Worth, TX, United States","Fort Worth, TX, United States",,Partially cloudy
"Fort Worth,TX,US",04/08/2005 18:00:00,75.9,75.9,75.9,51.9,43.09,,11.5,,146.0,,0.0,,0.0,8.9,18.3,1009.1,,32.7509,-97.3309,"Fort Worth, TX, United States","Fort Worth, TX, United States",,Clear
"Fort Worth,TX,US",04/08/2005 19:00:00,74.1,74.1,74.1,51.9,45.92,,14.1,,147.0,,0.0,,0.0,8.9,32.9,1008.6,,32.7509,-97.3309,"Fort Worth, TX, United States","Fort Worth, TX, United States",,Partially cloudy
"Fort Worth,TX,US",04/08/2005 20:00:00,71.1,71.1,71.1,51.9,50.61,,11.0,,147.0,,0.0,,0.0,8.9,32.9,1008.5,,32.7509,-97.3309,"Fort Worth, TX, United States","Fort Worth, TX, United States",,Partially cloudy
"Fort Worth,TX,US",04/08/2005 21:00:00,68.1,68.1,68.1,53.6,59.82,,10.2,,149.0,,0.0,,0.0,8.9,30.7,1008.8,,32.7509,-97.3309,"Fort Worth, TX, United States","Fort Worth, TX, United States",,Partially cloudy
"Fort Worth,TX,US",04/08/2005 22:00:00,66.3,66.3,66.3,52.5,61.05,,9.9,,140.0,,0.0,,0.0,8.9,17.5,1009.5,,32.7509,-97.3309,"Fort Worth, TX, United States","Fort Worth, TX, United States",,Clear
"Fort Worth,TX,US",04/08/2005 23:00:00,63.9,63.9,63.9,52.5,66.37,,7.6,,140.0,,0.0,,0.0,8.9,17.5,1009.6,,32.7509,-97.3309,"Fort Worth, TX, United States","Fort Worth, TX, United States",,Clear
"Dallas,TX,US",04/08/2005 00:00:00,61.8,61.8,61.8,51.0,67.68,,5.7,,290.0,,0.0,,0.0,9.9,0.0,1015.9,,32.7782,-96.7951,"Dallas, TX, United States","Dallas, TX, United States",,Clear
"Dallas,TX,US",04/08/2005 01:00:00,60.0,60.0,60.0,51.0,72.13,,7.5,,317.0,,0.0,,0.0,9.9,0.0,1015.9,,32.7782,-96.7951,"Dallas, TX, United States","Dallas, TX, United States",,Clear
"Dallas,TX,US",04/08/2005 02:00:00,56.7,56.7,56.7,50.7,80.24,,5.6,,336.0,,0.0,,0.0,9.9,0.0,1015.3,,32.7782,-96.7951,"Dallas, TX, United States","Dallas, TX, United States",,Clear
"Dallas,TX,US",04/08/2005 03:00:00,56.7,56.7,56.7,49.8,77.64,,7.7,,300.0,,0.0,,0.0,9.9,0.0,1015.5,,32.7782,-96.7951,"Dallas, TX, United States","Dallas, TX, United States",,Clear
"Dallas,TX,US",04/08/2005 04:00:00,52.0,52.0,52.0,48.0,86.05,,6.3,,346.0,,0.0,,0.0,9.9,0.0,1014.6,,32.7782,-96.7951,"Dallas, TX, United States","Dallas, TX, United States",,Clear
"Dallas,TX,US",04/08/2005 05:00:00,52.4,52.4,52.4,47.4,83.0,,4.9,,7.0,,0.0,,0.0,9.9,0.0,1014.5,,32.7782,-96.7951,"Dallas, TX, United States","Dallas, TX, United States",,Clear
"Dallas,TX,US",04/08/2005 06:00:00,52.2,52.2,52.2,47.2,83.07,,0.4,,310.0,,0.0,,0.0,9.6,3.6,1014.4,,32.7782,-96.7951,"Dallas, TX, United States","Dallas, TX, United States",,Clear
"Dallas,TX,US",04/08/2005 07:00:00,52.7,52.7,52.7,47.2,81.74,,0.6,,330.0,,0.0,,0.0,9.6,68.7,1015.0,,32.7782,-96.7951,"Dallas, TX, United States","Dallas, TX, United States",,Partially cloudy
"Dallas,TX,US",04/08/2005 08:00:00,54.6,54.6,54.6,49.1,81.87,,2.8,,260.0,,0.0,,0.0,8.9,73.9,1015.8,,32.7782,-96.7951,"Dallas, TX, United States","Dallas, TX, United States",,Partially cloudy
"Dallas,TX,US",04/08/2005 09:00:00,58.6,58.6,58.6,51.2,76.53,,0.0,,,,0.0,,0.0,8.2,75.8,1015.9,,32.7782,-96.7951,"Dallas, TX, United States","Dallas, TX, United States",,Overcast
"Dallas,TX,US",04/08/2005 10:00:00,62.6,62.6,62.6,53.5,72.25,,6.1,,151.0,,0.0,,0.0,8.2,77.0,1016.2,,32.7782,-96.7951,"Dallas, TX, United States","Dallas, TX, United States",,Overcast
"Dallas,TX,US",04/08/2005 11:00:00,69.3,69.3,69.3,56.0,62.6,,5.4,,127.0,,0.0,,0.0,8.2,77.0,1016.2,,32.7782,-96.7951,"Dallas, TX, United States","Dallas, TX, United States",,Overcast
"Dallas,TX,US",04/08/2005 12:00:00,69.6,69.6,69.6,55.8,61.52,,5.9,,124.0,,0.0,,0.0,9.6,84.2,1015.5,,32.7782,-96.7951,"Dallas, TX, United States","Dallas, TX, United States",,Overcast
"Dallas,TX,US",04/08/2005 13:00:00,74.5,74.5,74.5,56.3,53.07,,6.8,,145.0,,0.0,,0.0,9.6,84.2,1014.6,,32.7782,-96.7951,"Dallas, TX, United States","Dallas, TX, United States",,Overcast
"Dallas,TX,US",04/08/2005 14:00:00,74.5,74.5,74.5,56.7,53.87,,8.0,,148.0,,0.0,,0.0,9.6,83.1,1013.5,,32.7782,-96.7951,"Dallas, TX, United States","Dallas, TX, United States",,Overcast
"Dallas,TX,US",04/08/2005 15:00:00,77.6,77.6,77.6,55.6,46.65,,6.5,,174.0,,0.0,,0.0,9.6,83.1,1013.8,,32.7782,-96.7951,"Dallas, TX, United States","Dallas, TX, United States",,Overcast
"Dallas,TX,US",04/08/2005 16:00:00,75.0,75.0,75.0,49.5,40.58,,8.4,,132.0,,0.0,,0.0,9.6,83.1,1011.6,,32.7782,-96.7951,"Dallas, TX, United States","Dallas, TX, United States",,Overcast
"Dallas,TX,US",04/08/2005 17:00:00,74.9,74.9,74.9,49.7,41.22,,11.2,,156.0,,0.0,,0.0,9.6,83.1,1010.3,,32.7782,-96.7951,"Dallas, TX, United States","Dallas, TX, United States",,Overcast
"Dallas,TX,US",04/08/2005 18:00:00,75.9,75.9,75.9,51.4,42.32,,14.0,,142.0,,0.0,,0.0,9.6,42.1,1008.9,,32.7782,-96.7951,"Dallas, TX, United States","Dallas, TX, United States",,Partially cloudy
"Dallas,TX,US",04/08/2005 19:00:00,73.4,73.4,73.4,52.7,48.19,,12.2,,142.0,,0.0,,0.0,9.6,75.8,1009.0,,32.7782,-96.7951,"Dallas, TX, United States","Dallas, TX, United States",,Overcast
"Dallas,TX,US",04/08/2005 20:00:00,71.1,71.1,71.1,51.4,49.72,,11.3,,149.0,,0.0,,0.0,9.6,75.8,1008.7,,32.7782,-96.7951,"Dallas, TX, United States","Dallas, TX, United States",,Overcast
"Dallas,TX,US",04/08/2005 21:00:00,67.3,67.3,67.3,51.9,57.63,,9.5,,136.0,,0.0,,0.0,9.6,32.4,1009.0,,32.7782,-96.7951,"Dallas, TX, United States","Dallas, TX, United States",,Partially cloudy
"Dallas,TX,US",04/08/2005 22:00:00,66.2,66.2,66.2,52.2,60.78,,10.2,,140.0,,0.0,,0.0,9.6,27.6,1009.7,,32.7782,-96.7951,"Dallas, TX, United States","Dallas, TX, United States",,Partially cloudy
"Dallas,TX,US",04/08/2005 23:00:00,63.2,63.2,63.2,51.6,65.72,,6.3,,147.0,,0.0,,0.0,9.6,27.6,1010.0,,32.7782,-96.7951,"Dallas, TX, United States","Dallas, TX, United States",,Partially cloudy
"Little Rock,AR,US",04/08/2005 00:00:00,57.9,57.9,57.9,52.2,81.15,,8.0,,320.0,,0.0,,0.0,6.8,0.3,1012.9,,34.7487,-92.2748,"Little Rock, AR, United States","Little Rock, AR, United States",,Clear
"Little Rock,AR,US",04/08/2005 01:00:00,57.9,57.9,57.9,52.2,81.15,,11.3,,340.0,,0.0,,0.0,6.8,3.3,1013.2,,34.7487,-92.2748,"Little Rock, AR, United States","Little Rock, AR, United States",,Clear
"Little Rock,AR,US",04/08/2005 02:00:00,59.1,59.1,59.1,52.2,77.7,,9.1,,350.0,,0.0,,0.0,6.8,99.5,1012.9,,34.7487,-92.2748,"Little Rock, AR, United States","Little Rock, AR, United States",,Overcast
"Little Rock,AR,US",04/08/2005 03:00:00,59.1,59.1,59.1,51.3,75.1,,10.3,,360.0,,0.0,,0.0,6.8,99.4,1012.9,,34.7487,-92.2748,"Little Rock, AR, United States","Little Rock, AR, United States",,Overcast
"Little Rock,AR,US",04/08/2005 04:00:00,56.0,56.0,56.0,50.1,80.46,,4.7,,340.0,,0.0,,0.0,6.8,50.2,1013.2,,34.7487,-92.2748,"Little Rock, AR, United States","Little Rock, AR, United States",,Partially cloudy
"Little Rock,AR,US",04/08/2005 05:00:00,56.9,56.9,56.9,50.1,77.86,,10.3,,330.0,,0.0,,0.0,6.2,100.0,1013.5,Mist,34.7487,-92.2748,"Little Rock, AR, United States","Little Rock, AR, United States",,Overcast
"Little Rock,AR,US",04/08/2005 06:00:00,55.1,55.1,55.1,48.1,77.03,,9.0,,330.0,,0.0,,0.0,6.2,88.7,1013.9,Mist,34.7487,-92.2748,"Little Rock, AR, United States","Little Rock, AR, United States",,Overcast
"Little Rock,AR,US",04/08/2005 07:00:00,53.9,53.9,53.9,47.0,77.61,,8.1,,320.0,,0.0,,0.0,6.1,30.2,1014.6,Mist,34.7487,-92.2748,"Little Rock, AR, United States","Little Rock, AR, United States",,Partially cloudy
"Little Rock,AR,US",04/08/2005 08:00:00,55.1,55.1,55.1,47.1,74.38,,8.0,,330.0,,0.0,,0.0,6.8,90.0,1015.2,,34.7487,-92.2748,"Little Rock, AR, United States","Little Rock, AR, United States",,Overcast
"Little Rock,AR,US",04/08/2005 09:00:00,57.0,57.0,57.0,47.1,69.54,,11.3,,359.0,,0.0,,0.0,6.8,99.6,1015.2,,34.7487,-92.2748,"Little Rock, AR, United States","Little Rock, AR, United States",,Overcast
"Little Rock,AR,US",04/08/2005 10:00:00,60.2,60.2,60.2,47.9,63.99,,6.9,,360.0,,0.0,,0.0,6.8,90.0,1015.6,,34.7487,-92.2748,"Little Rock, AR, United States","Little Rock, AR, United States",,Overcast
"Little Rock,AR,US",04/08/2005 11:00:00,64.2,64.2,64.2,50.2,60.31,,3.6,,339.0,,0.0,,0.0,6.8,30.2,1015.6,,34.7487,-92.2748,"Little Rock, AR, United States","Little Rock, AR, United States",,Partially cloudy
"Little Rock,AR,US",04/08/2005 12:00:00,66.8,66.8,66.8,51.2,57.17,,6.9,,20.0,,0.0,,0.0,6.8,30.2,1014.9,,34.7487,-92.2748,"Little Rock, AR, United States","Little Rock, AR, United States",,Partially cloudy
"Little Rock,AR,US",04/08/2005 13:00:00,69.2,69.2,69.2,52.1,54.53,,5.8,,30.0,,0.0,,0.0,6.8,50.1,1014.2,,34.7487,-92.2748,"Little Rock, AR, United States","Little Rock, AR, United States",,Partially cloudy
"Little Rock,AR,US",04/08/2005 14:00:00,71.0,71.0,71.0,52.1,51.29,,4.7,,131.0,,0.0,,0.0,6.8,49.9,1013.9,,34.7487,-92.2748,"Little Rock, AR, United States","Little Rock, AR, United States",,Partially cloudy
"Little Rock,AR,US",04/08/2005 15:00:00,71.9,71.9,71.9,52.2,49.87,,0.1,,,,0.0,,0.0,6.8,49.9,1012.9,,34.7487,-92.2748,"Little Rock, AR, United States","Little Rock, AR, United States",,Partially cloudy
"Little Rock,AR,US",04/08/2005 16:00:00,74.1,74.1,74.1,53.9,49.34,,7.9,,110.0,,0.0,,0.0,6.8,51.2,1012.2,,34.7487,-92.2748,"Little Rock, AR, United States","Little Rock, AR, United States",,Partially cloudy
"Little Rock,AR,US",04/08/2005 17:00:00,74.1,74.1,74.1,53.9,49.35,,4.7,,100.0,,0.0,,0.0,6.8,49.2,1012.2,,34.7487,-92.2748,"Little Rock, AR, United States","Little Rock, AR, United States",,Partially cloudy
"Little Rock,AR,US",04/08/2005 18:00:00,72.0,72.0,72.0,55.2,55.56,,9.0,,109.0,,0.0,,0.0,6.8,49.8,1011.5,,34.7487,-92.2748,"Little Rock, AR, United States","Little Rock, AR, United States",,Partially cloudy
"Little Rock,AR,US",04/08/2005 19:00:00,70.1,70.1,70.1,56.1,61.19,,6.9,,130.0,,0.0,,0.0,6.8,49.9,1011.9,,34.7487,-92.2748,"Little Rock, AR, United States","Little Rock, AR, United States",,Partially cloudy
"Little Rock,AR,US",04/08/2005 20:00:00,66.0,66.0,66.0,56.1,70.52,,6.8,,111.0,,0.0,,0.0,6.8,49.8,1011.9,,34.7487,-92.2748,"Little Rock, AR, United States","Little Rock, AR, United States",,Partially cloudy
"Little Rock,AR,US",04/08/2005 21:00:00,64.1,64.1,64.1,56.1,75.25,,4.7,,109.0,,0.0,,0.0,6.8,50.0,1012.2,,34.7487,-92.2748,"Little Rock, AR, United States","Little Rock, AR, United States",,Partially cloudy
"Little Rock,AR,US",04/08/2005 22:00:00,62.9,62.9,62.9,56.2,78.7,,3.4,,129.0,,0.0,,0.0,6.8,49.8,1012.2,,34.7487,-92.2748,"Little Rock, AR, United States","Little Rock, AR, United States",,Partially cloudy
"Little Rock,AR,US",04/08/2005 23:00:00,62.0,62.0,62.0,56.2,81.31,,0.0,,100.0,,0.0,,0.0,6.8,1.0,1012.9,Mist,34.7487,-92.2748,"Little Rock, AR, United States","Little Rock, AR, United States",,Clear
"Jonesboro,AR,US",04/08/2005 00:00:00,55.8,55.8,55.8,50.1,81.01,,13.9,,340.0,,0.0,,0.0,8.7,100.0,1011.9,,35.8353,-90.7051,"Jonesboro, AR, United States","Jonesboro, AR, United States",,Overcast
"Jonesboro,AR,US",04/08/2005 01:00:00,55.8,55.8,55.8,50.0,81.01,,8.1,,330.0,,0.0,,0.0,8.1,100.0,1012.2,,35.8353,-90.7051,"Jonesboro, AR, United States","Jonesboro, AR, United States",,Overcast
"Jonesboro,AR,US",04/08/2005 02:00:00,55.3,55.3,55.3,48.1,76.67,,9.2,,340.0,,0.0,,0.0,8.7,100.0,1012.2,,35.8353,-90.7051,"Jonesboro, AR, United States","Jonesboro, AR, United States",,Overcast
"Jonesboro,AR,US",04/08/2005 03:00:00,55.3,55.3,55.3,46.3,71.7,,10.3,,340.0,,0.0,,0.0,9.9,100.0,1011.5,,35.8353,-90.7051,"Jonesboro, AR, United States","Jonesboro, AR, United States",,Overcast
"Jonesboro,AR,US",04/08/2005 04:00:00,53.8,53.8,53.8,46.3,75.62,,10.3,,340.0,,0.0,,0.0,9.9,98.8,1011.5,,35.8353,-90.7051,"Jonesboro, AR, United States","Jonesboro, AR, United States",,Overcast
"Jonesboro,AR,US",04/08/2005 05:00:00,53.8,53.8,53.8,46.3,75.68,,8.0,,340.0,,0.0,,0.0,9.9,99.4,1011.9,,35.8353,-90.7051,"Jonesboro, AR, United States","Jonesboro, AR, United States",,Overcast
"Jonesboro,AR,US",04/08/2005 06:00:00,53.8,53.8,53.8,44.8,71.55,,9.2,,359.0,,0.0,,0.0,9.9,100.0,1012.5,,35.8353,-90.7051,"Jonesboro, AR, United States","Jonesboro, AR, United States",,Overcast
"Jonesboro,AR,US",04/08/2005 07:00:00,53.2,53.2,53.2,44.8,72.95,,9.2,,340.0,,0.0,,0.0,9.9,100.0,1013.2,,35.8353,-90.7051,"Jonesboro, AR, United States","Jonesboro, AR, United States",,Overcast
"Jonesboro,AR,US",04/08/2005 08:00:00,53.3,53.3,53.3,46.3,77.11,,7.0,,360.0,,0.0,,0.0,8.7,99.9,1014.2,,35.8353,-90.7051,"Jonesboro, AR, United States","Jonesboro, AR, United States",,Overcast
"Jonesboro,AR,US",04/08/2005 09:00:00,53.8,53.8,53.8,46.3,75.56,,8.1,,360.0,,0.0,,0.0,8.7,99.4,1014.2,,35.8353,-90.7051,"Jonesboro, AR, United States","Jonesboro, AR, United States",,Overcast
"Jonesboro,AR,US",04/08/2005 10:00:00,57.1,57.1,57.1,48.1,71.84,,4.8,,20.0,,0.0,,0.0,9.9,88.9,1014.9,,35.8353,-90.7051,"Jonesboro, AR, United States","Jonesboro, AR, United States",,Overcast
"Jonesboro,AR,US",04/08/2005 11:00:00,59.1,59.1,59.1,50.1,72.05,,8.0,,40.0,,0.0,,0.0,9.9,88.9,1014.9,,35.8353,-90.7051,"Jonesboro, AR, United States","Jonesboro, AR, United States",,Overcast
"Jonesboro,AR,US",04/08/2005 12:00:00,60.5,60.5,60.5,52.0,73.61,,9.1,,100.0,,0.0,,0.0,9.9,29.6,1014.6,,35.8353,-90.7051,"Jonesboro, AR, United States","Jonesboro, AR, United States",,Partially cloudy
"Jonesboro,AR,US",04/08/2005 13:00:00,62.3,62.3,62.3,53.8,73.79,,9.1,,100.0,,0.0,,0.0,9.9,0.0,1014.2,,35.8353,-90.7051,"Jonesboro, AR, United States","Jonesboro, AR, United States",,Clear
"Jonesboro,AR,US",04/08/2005 14:00:00,64.3,64.3,64.3,55.3,72.52,,10.2,,90.0,,0.0,,0.0,8.7,0.0,1013.9,,35.8353,-90.7051,"Jonesboro, AR, United States","Jonesboro, AR, United States",,Clear
"Jonesboro,AR,US",04/08/2005 15:00:00,64.3,64.3,64.3,55.3,72.52,,9.1,,110.0,,0.0,,0.0,8.7,29.6,1013.2,,35.8353,-90.7051,"Jonesboro, AR, United States","Jonesboro, AR, United States",,Partially cloudy
"Jonesboro,AR,US",04/08/2005 16:00:00,64.9,64.9,64.9,55.8,72.57,,6.9,,90.0,,0.0,,0.0,6.2,29.6,1012.9,Smoke Or Haze,35.8353,-90.7051,"Jonesboro, AR, United States","Jonesboro, AR, United States",,Partially cloudy
"Jonesboro,AR,US",04/08/2005 17:00:00,66.1,66.1,66.1,57.1,72.7,,4.7,,70.0,,0.0,,0.0,9.9,0.0,1012.5,,35.8353,-90.7051,"Jonesboro, AR, United States","Jonesboro, AR, United States",,Clear
"Jonesboro,AR,US",04/08/2005 18:00:00,66.1,66.1,66.1,57.1,72.7,,3.4,,110.0,,0.0,,0.0,9.9,49.4,1012.5,,35.8353,-90.7051,"Jonesboro, AR, United States","Jonesboro, AR, United States",,Partially cloudy
"Jonesboro,AR,US",04/08/2005 19:00:00,64.3,64.3,64.3,57.1,77.4,,6.9,,91.0,,0.0,,0.0,9.9,0.0,1012.2,,35.8353,-90.7051,"Jonesboro, AR, United States","Jonesboro, AR, United States",,Clear
"Jonesboro,AR,US",04/08/2005 20:00:00,61.0,61.0,61.0,55.8,82.97,,7.0,,90.0,,0.0,,0.0,8.7,0.0,1012.2,,35.8353,-90.7051,"Jonesboro, AR, United States","Jonesboro, AR, United States",,Clear
"Jonesboro,AR,US",04/08/2005 21:00:00,60.5,60.5,60.5,55.8,84.61,,4.7,,120.0,,0.0,,0.0,6.9,0.0,1012.9,,35.8353,-90.7051,"Jonesboro, AR, United States","Jonesboro, AR, United States",,Clear
"Jonesboro,AR,US",04/08/2005 22:00:00,57.7,57.7,57.7,55.3,91.78,,8.0,,140.0,,0.0,,0.0,6.3,0.0,1013.9,Mist,35.8353,-90.7051,"Jonesboro, AR, United States","Jonesboro, AR, United States",,Clear
"Jonesboro,AR,US",04/08/2005 23:00:00,57.1,57.1,57.1,53.8,88.77,,5.8,,140.0,,0.0,,0.0,5.0,49.4,1013.5,Mist,35.8353,-90.7051,"Jonesboro, AR, United States","Jonesboro, AR, United States",,Partially cloudy
"Carbondale,IL,US",04/08/2005 00:00:00,53.6,53.6,53.6,48.0,81.26,,12.1,,323.0,,0.0,,0.0,6.8,100.0,1012.5,,37.7273,-89.2158,"Carbondale, IL, United States","Carbondale, IL, United States",,Overcast
"Carbondale,IL,US",04/08/2005 01:00:00,53.4,53.4,53.4,48.0,81.76,,8.3,,333.0,,0.0,,0.0,8.0,100.0,1012.5,,37.7273,-89.2158,"Carbondale, IL, United States","Carbondale, IL, United States",,Overcast
"Carbondale,IL,US",04/08/2005 02:00:00,53.4,53.4,53.4,46.7,77.84,,7.1,,360.0,,0.0,,0.0,8.5,90.9,1012.5,,37.7273,-89.2158,"Carbondale, IL, United States","Carbondale, IL, United States",,Overcast
"Carbondale,IL,US",04/08/2005 03:00:00,52.0,52.0,52.0,46.7,82.17,,9.3,,342.0,,0.0,,0.0,8.5,100.0,1012.5,,37.7273,-89.2158,"Carbondale, IL, United States","Carbondale, IL, United States",,Overcast
"Carbondale,IL,US",04/08/2005 04:00:00,51.6,51.6,51.6,46.4,82.14,,10.4,,353.0,,0.0,,0.0,7.8,100.0,1012.9,Smoke Or Haze,37.7273,-89.2158,"Carbondale, IL, United States","Carbondale, IL, United States",,Overcast
"Carbondale,IL,US",04/08/2005 05:00:00,50.3,50.3,50.3,44.9,81.84,,10.1,,350.0,,0.0,,0.0,7.7,100.0,1012.9,Smoke Or Haze,37.7273,-89.2158,"Carbondale, IL, United States","Carbondale, IL, United States",,Overcast
"Carbondale,IL,US",04/08/2005 06:00:00,48.8,48.8,48.8,46.4,91.18,,8.9,,341.0,45.0,0.0,,0.0,5.9,100.0,1013.5,Mist,37.7273,-89.2158,"Carbondale, IL, United States","Carbondale, IL, United States",,Overcast
"Carbondale,IL,US",04/08/2005 07:00:00,50.3,50.3,50.3,46.7,87.49,,7.8,,340.0,,0.0,,0.0,3.7,100.0,1014.2,"Mist, Smoke Or Haze",37.7273,-89.2158,"Carbondale, IL, United States","Carbondale, IL, United States",,Overcast
"Carbondale,IL,US",04/08/2005 08:00:00,51.8,51.8,51.8,48.2,87.36,,7.7,,341.0,,0.0,,0.0,3.1,100.0,1014.9,"Mist, Smoke Or Haze",37.7273,-89.2158,"Carbondale, IL, United States","Carbondale, IL, United States",,Overcast
"Carbondale,IL,US",04/08/2005 09:00:00,53.8,53.8,53.8,48.7,82.79,,8.1,,351.0,,0.0,,0.0,3.7,100.0,1015.2,"Mist, Smoke Or Haze",37.7273,-89.2158,"Carbondale, IL, United States","Carbondale, IL, United States",,Overcast
"Carbondale,IL,US",04/08/2005 10:00:00,54.4,54.4,54.4,50.1,85.27,,9.2,,335.0,,0.0,,0.0,5.0,95.4,1015.6,"Mist, Smoke Or Haze",37.7273,-89.2158,"Carbondale, IL, United States","Carbondale, IL, United States",,Overcast
"Carbondale,IL,US",04/08/2005 11:00:00,59.6,59.6,59.6,51.5,74.46,,9.3,,37.0,,0.0,,0.0,6.3,27.2,1015.9,Smoke Or Haze,37.7273,-89.2158,"Carbondale, IL, United States","Carbondale, IL, United States",,Partially cloudy
"Carbondale,IL,US",04/08/2005 12:00:00,62.8,62.8,62.8,52.0,67.77,,7.1,,20.0,,0.0,,0.0,8.3,0.0,1015.6,,37.7273,-89.2158,"Carbondale, IL, United States","Carbondale, IL, United States",,Clear
"Carbondale,IL,US",04/08/2005 13:00:00,65.2,65.2,65.2,53.6,66.11,,9.1,,48.0,,0.0,,0.0,9.9,0.0,1014.8,,37.7273,-89.2158,"Carbondale, IL, United States","Carbondale, IL, United States",,Clear
"Carbondale,IL,US",04/08/2005 14:00:00,68.4,68.4,68.4,55.5,63.42,,7.6,,71.0,,0.0,,0.0,9.9,0.0,1014.2,,37.7273,-89.2158,"Carbondale, IL, United States","Carbondale, IL, United States",,Clear
"Carbondale,IL,US",04/08/2005 15:00:00,70.0,70.0,70.0,55.2,59.46,,11.2,,67.0,,0.0,,0.0,9.9,0.0,1013.5,,37.7273,-89.2158,"Carbondale, IL, United States","Carbondale, IL, United States",,Clear
"Carbondale,IL,US",04/08/2005 16:00:00,70.3,70.3,70.3,55.0,58.44,,11.4,,57.0,,0.0,,0.0,9.9,0.0,1012.9,,37.7273,-89.2158,"Carbondale, IL, United States","Carbondale, IL, United States",,Clear
"Carbondale,IL,US",04/08/2005 17:00:00,71.4,71.4,71.4,53.4,53.03,,10.1,,48.0,,0.0,,0.0,9.9,0.0,1012.5,,37.7273,-89.2158,"Carbondale, IL, United States","Carbondale, IL, United States",,Clear
"Carbondale,IL,US",04/08/2005 18:00:00,70.0,70.0,70.0,51.6,52.18,,9.0,,84.0,,0.0,,0.0,9.9,0.0,1012.9,,37.7273,-89.2158,"Carbondale, IL, United States","Carbondale, IL, United States",,Clear
"Carbondale,IL,US",04/08/2005 19:00:00,66.2,66.2,66.2,51.5,59.11,,8.3,,90.0,,0.0,,0.0,9.9,0.0,1012.9,,37.7273,-89.2158,"Carbondale, IL, United States","Carbondale, IL, United States",,Clear
"Carbondale,IL,US",04/08/2005 20:00:00,63.7,63.7,63.7,51.0,63.23,,5.3,,110.0,,0.0,,0.0,9.9,0.0,1013.3,,37.7273,-89.2158,"Carbondale, IL, United States","Carbondale, IL, United States",,Clear
"Carbondale,IL,US",04/08/2005 21:00:00,60.5,60.5,60.5,49.3,66.53,,6.3,,80.0,,0.0,,0.0,9.9,0.0,1014.0,,37.7273,-89.2158,"Carbondale, IL, United States","Carbondale, IL, United States",,Clear
"Carbondale,IL,US",04/08/2005 22:00:00,58.6,58.6,58.6,48.0,67.8,,4.3,,80.0,,0.0,,0.0,9.9,0.0,1014.3,,37.7273,-89.2158,"Carbondale, IL, United States","Carbondale, IL, United States",,Clear
"Carbondale,IL,US",04/08/2005 23:00:00,57.2,57.2,57.2,47.8,70.97,,5.6,,75.0,,0.0,,0.0,9.9,0.0,1014.6,,37.7273,-89.2158,"Carbondale, IL, United States","Carbondale, IL, United States",,Clear
"Evansville,IN,US",04/08/2005 00:00:00,52.7,52.7,52.7,49.7,89.43,,9.3,,360.0,,0.04,,0.0,4.7,88.7,1010.3,Mist,37.9771,-87.564,"Evansville, IN, United States","Evansville, IN, United States",,"Rain, Overcast"
"Evansville,IN,US",04/08/2005 01:00:00,53.8,53.8,53.8,50.1,87.2,,10.3,,352.0,,0.0,,0.0,4.0,97.7,1010.5,Mist,37.9771,-87.564,"Evansville, IN, United States","Evansville, IN, United States",,Overcast
"Evansville,IN,US",04/08/2005 02:00:00,54.8,54.8,54.8,50.8,86.35,,10.2,,360.0,,0.0,,0.0,3.7,97.7,1010.5,Mist,37.9771,-87.564,"Evansville, IN, United States","Evansville, IN, United States",,Overcast
"Evansville,IN,US",04/08/2005 03:00:00,55.7,55.7,55.7,51.7,86.4,,12.4,,10.0,,0.0,,0.0,3.7,91.2,1010.7,Mist,37.9771,-87.564,"Evansville, IN, United States","Evansville, IN, United States",,Overcast
"Evansville,IN,US",04/08/2005 04:00:00,55.2,55.2,55.2,51.9,88.62,,8.7,,20.0,,0.0,,0.0,3.6,90.7,1010.5,Mist,37.9771,-87.564,"Evansville, IN, United States","Evansville, IN, United States",,Overcast
"Evansville,IN,US",04/08/2005 05:00:00,54.0,54.0,54.0,50.3,87.21,,10.2,,2.0,,0.0,,0.0,3.7,88.7,1011.2,Mist,37.9771,-87.564,"Evansville, IN, United States","Evansville, IN, United States",,Overcast
"Evansville,IN,US",04/08/2005 06:00:00,53.1,53.1,53.1,48.3,83.61,,11.2,,11.0,,0.0,,0.0,4.6,39.6,1011.9,Mist,37.9771,-87.564,"Evansville, IN, United States","Evansville, IN, United States",,Partially cloudy
"Evansville,IN,US",04/08/2005 07:00:00,50.7,50.7,50.7,46.5,85.44,,10.6,,12.0,,0.0,,0.0,3.7,40.4,1012.9,Mist,37.9771,-87.564,"Evansville, IN, United States","Evansville, IN, United States",,Partially cloudy
"Evansville,IN,US",04/08/2005 08:00:00,52.2,52.2,52.2,44.4,74.66,,12.9,,21.0,,0.0,,0.0,6.8,0.0,1013.2,,37.9771,-87.564,"Evansville, IN, United States","Evansville, IN, United States",,Clear
"Evansville,IN,US",04/08/2005 09:00:00,54.0,54.0,54.0,44.4,69.89,,12.9,,29.0,,0.0,,0.0,8.3,0.0,1013.6,,37.9771,-87.564,"Evansville, IN, United States","Evansville, IN, United States",,Clear
"Evansville,IN,US",04/08/2005 10:00:00,57.9,57.9,57.9,46.5,65.72,,11.8,,21.0,,0.0,,0.0,9.9,0.0,1014.3,,37.9771,-87.564,"Evansville, IN, United States","Evansville, IN, United States",,Clear
"Evansville,IN,US",04/08/2005 11:00:00,61.7,61.7,61.7,48.3,61.4,,9.0,,19.0,,0.0,,0.0,9.9,0.0,1014.7,,37.9771,-87.564,"Evansville, IN, United States","Evansville, IN, United States",,Clear
"Evansville,IN,US",04/08/2005 12:00:00,64.0,64.0,64.0,49.7,59.65,,9.2,,349.0,,0.0,,0.0,9.9,0.0,1014.3,,37.9771,-87.564,"Evansville, IN, United States","Evansville, IN, United States",,Clear
"Evansville,IN,US",04/08/2005 13:00:00,67.5,67.5,67.5,51.4,56.38,,9.0,,12.0,,0.0,,0.0,9.9,0.0,1013.9,,37.9771,-87.564,"Evansville, IN, United States","Evansville, IN, United States",,Clear
"Evansville,IN,US",04/08/2005 14:00:00,69.6,69.6,69.6,51.6,52.8,,11.3,,3.0,,0.0,,0.0,9.9,0.0,1013.5,,37.9771,-87.564,"Evansville, IN, United States","Evansville, IN, United States",,Clear
"Evansville,IN,US",04/08/2005 15:00:00,70.9,70.9,70.9,51.8,50.86,,11.4,,6.0,,0.0,,0.0,9.9,23.2,1012.9,,37.9771,-87.564,"Evansville, IN, United States","Evansville, IN, United States",,Clear
"Evansville,IN,US",04/08/2005 16:00:00,72.8,72.8,72.8,50.3,45.11,,11.2,,2.0,,0.0,,0.0,9.9,0.0,1012.5,,37.9771,-87.564,"Evansville, IN, United States","Evansville, IN, United States",,Clear
"Evansville,IN,US",04/08/2005 17:00:00,71.6,71.6,71.6,48.2,43.43,,10.8,,21.0,,0.0,,0.0,9.9,0.0,1012.2,,37.9771,-87.564,"Evansville, IN, United States","Evansville, IN, United States",,Clear
"Evansville,IN,US",04/08/2005 18:00:00,70.5,70.5,70.5,46.6,42.46,,10.5,,18.0,,0.0,,0.0,9.9,0.0,1012.2,,37.9771,-87.564,"Evansville, IN, United States","Evansville, IN, United States",,Clear
"Evansville,IN,US",04/08/2005 19:00:00,66.7,66.7,66.7,43.1,42.4,,8.1,,24.0,,0.0,,0.0,9.9,0.0,1012.3,,37.9771,-87.564,"Evansville, IN, United States","Evansville, IN, United States",,Clear
"Evansville,IN,US",04/08/2005 20:00:00,62.1,62.1,62.1,40.4,44.82,,5.2,,44.0,,0.0,,0.0,9.9,0.0,1013.0,,37.9771,-87.564,"Evansville, IN, United States","Evansville, IN, United States",,Clear
"Evansville,IN,US",04/08/2005 21:00:00,55.9,55.9,55.9,41.9,59.44,,8.3,,50.0,,0.0,,0.0,9.9,0.0,1013.9,,37.9771,-87.564,"Evansville, IN, United States","Evansville, IN, United States",,Clear
"Evansville,IN,US",04/08/2005 22:00:00,57.4,57.4,57.4,40.7,53.51,,6.3,,60.0,,0.0,,0.0,9.9,0.0,1014.6,,37.9771,-87.564,"Evansville, IN, United States","Evansville, IN, United States",,Clear
"Evansville,IN,US",04/08/2005 23:00:00,56.1,56.1,56.1,39.7,54.02,,5.2,,51.0,,0.0,,0.0,9.9,0.0,1014.9,,37.9771,-87.564,"Evansville, IN, United States","Evansville, IN, United States",,Clear
"Indianapolis,IN,US",04/08/2005 00:00:00,51.2,51.2,51.2,46.0,82.42,,15.2,,64.0,,0.0,,0.0,4.5,100.0,1012.5,"Mist, Smoke Or Haze",39.7669,-86.1501,"Indianapolis, IN, United States","Indianapolis, IN, United States",,Overcast
"Indianapolis,IN,US",04/08/2005 01:00:00,50.1,50.1,50.1,44.2,80.26,,12.8,,58.0,,0.0,,0.0,6.1,100.0,1013.2,Mist,39.7669,-86.1501,"Indianapolis, IN, United States","Indianapolis, IN, United States",,Overcast
"Indianapolis,IN,US",04/08/2005 02:00:00,48.3,48.3,48.3,43.1,82.12,,9.9,,58.0,44.0,0.0,,0.0,6.6,12.1,1013.2,Mist,39.7669,-86.1501,"Indianapolis, IN, United States","Indianapolis, IN, United States",,Clear
"Indianapolis,IN,US",04/08/2005 03:00:00,47.7,47.7,47.7,43.1,84.09,,10.1,,58.0,43.1,0.0,,0.0,6.2,12.1,1012.9,"Mist, Smoke Or Haze",39.7669,-86.1501,"Indianapolis, IN, United States","Indianapolis, IN, United States",,Clear
"Indianapolis,IN,US",04/08/2005 04:00:00,46.5,46.5,46.5,40.6,79.81,,10.8,,62.0,41.4,0.0,,0.0,6.8,0.0,1013.1,,39.7669,-86.1501,"Indianapolis, IN, United States","Indianapolis, IN, United States",,Clear
"Indianapolis,IN,US",04/08/2005 05:00:00,45.7,45.7,45.7,39.9,79.98,,10.4,,48.0,40.6,0.0,,0.0,7.6,0.0,1013.4,,39.7669,-86.1501,"Indianapolis, IN, United States","Indianapolis, IN, United States",,Clear
"Indianapolis,IN,US",04/08/2005 06:00:00,44.5,44.5,44.5,38.6,79.76,,9.4,,58.0,39.4,0.0,,0.0,8.7,0.0,1013.9,,39.7669,-86.1501,"Indianapolis, IN, United States","Indianapolis, IN, United States",,Clear
"Indianapolis,IN,US",04/08/2005 07:00:00,44.5,44.5,44.5,38.6,79.76,,9.6,,48.0,39.3,0.0,,0.0,9.4,0.0,1014.9,,39.7669,-86.1501,"Indianapolis, IN, United States","Indianapolis, IN, United States",,Clear
"Indianapolis,IN,US",04/08/2005 08:00:00,47.3,47.3,47.3,38.0,69.83,,12.8,,60.0,41.8,0.0,,0.0,9.9,0.0,1015.6,,39.7669,-86.1501,"Indianapolis, IN, United States","Indianapolis, IN, United States",,Clear
"Indianapolis,IN,US",04/08/2005 09:00:00,50.9,50.9,50.9,36.7,57.99,,12.8,,74.0,,0.0,,0.0,9.9,0.0,1016.1,,39.7669,-86.1501,"Indianapolis, IN, United States","Indianapolis, IN, United States",,Clear
"Indianapolis,IN,US",04/08/2005 10:00:00,54.7,54.7,54.7,36.3,49.76,,14.5,,70.0,,0.0,,0.0,9.9,0.0,1016.6,,39.7669,-86.1501,"Indianapolis, IN, United States","Indianapolis, IN, United States",,Clear
"Indianapolis,IN,US",04/08/2005 11:00:00,58.2,58.2,58.2,36.7,44.49,,11.3,,68.0,,0.0,,0.0,9.9,0.0,1016.9,,39.7669,-86.1501,"Indianapolis, IN, United States","Indianapolis, IN, United States",,Clear
"Indianapolis,IN,US",04/08/2005 12:00:00,61.8,61.8,61.8,36.7,39.14,,14.8,,78.0,,0.0,,0.0,9.9,0.0,1016.6,,39.7669,-86.1501,"Indianapolis, IN, United States","Indianapolis, IN, United States",,Clear
"Indianapolis,IN,US",04/08/2005 13:00:00,62.5,62.5,62.5,35.5,36.46,,13.7,,72.0,,0.0,,0.0,9.9,0.0,1016.3,,39.7669,-86.1501,"Indianapolis, IN, United States","Indianapolis, IN, United States",,Clear
"Indianapolis,IN,US",04/08/2005 14:00:00,64.0,64.0,64.0,37.0,36.78,,13.1,,68.0,,0.0,,0.0,9.9,0.0,1015.8,,39.7669,-86.1501,"Indianapolis, IN, United States","Indianapolis, IN, United States",,Clear
"Indianapolis,IN,US",04/08/2005 15:00:00,65.9,65.9,65.9,36.1,33.04,,13.3,,60.0,,0.0,,0.0,9.9,0.0,1015.1,,39.7669,-86.1501,"Indianapolis, IN, United States","Indianapolis, IN, United States",,Clear
"Indianapolis,IN,US",04/08/2005 16:00:00,65.9,65.9,65.9,37.6,35.12,,12.2,,68.0,,0.0,,0.0,9.9,0.0,1014.9,,39.7669,-86.1501,"Indianapolis, IN, United States","Indianapolis, IN, United States",,Clear
"Indianapolis,IN,US",04/08/2005 17:00:00,65.9,65.9,65.9,38.6,36.52,,10.7,,60.0,,0.0,,0.0,9.9,0.0,1014.8,,39.7669,-86.1501,"Indianapolis, IN, United States","Indianapolis, IN, United States",,Clear
"Indianapolis,IN,US",04/08/2005 18:00:00,64.0,64.0,64.0,39.0,39.76,,11.3,,78.0,,0.0,,0.0,9.9,0.0,1014.8,,39.7669,-86.1501,"Indianapolis, IN, United States","Indianapolis, IN, United States",,Clear
"Indianapolis,IN,US",04/08/2005 19:00:00,62.1,62.1,62.1,37.0,39.33,,8.7,,84.0,,0.0,,0.0,9.9,0.0,1014.6,,39.7669,-86.1501,"Indianapolis, IN, United States","Indianapolis, IN, United States",,Clear
"Indianapolis,IN,US",04/08/2005 20:00:00,60.4,60.4,60.4,34.7,38.13,,9.9,,78.0,,0.0,,0.0,9.9,0.0,1014.9,,39.7669,-86.1501,"Indianapolis, IN, United States","Indianapolis, IN, United States",,Clear
"Indianapolis,IN,US",04/08/2005 21:00:00,57.7,57.7,57.7,34.5,41.56,,9.9,,88.0,,0.0,,0.0,9.9,0.0,1015.9,,39.7669,-86.1501,"Indianapolis, IN, United States","Indianapolis, IN, United States",,Clear
"Indianapolis,IN,US",04/08/2005 22:00:00,55.9,55.9,55.9,33.2,42.24,,9.3,,72.0,,0.0,,0.0,9.9,0.0,1016.6,,39.7669,-86.1501,"Indianapolis, IN, United States","Indianapolis, IN, United States",,Clear
"Indianapolis,IN,US",04/08/2005 23:00:00,53.8,53.8,53.8,32.9,44.86,,9.7,,88.0,,0.0,,0.0,9.9,0.0,1016.9,,39.7669,-86.1501,"Indianapolis, IN, United States","Indianapolis, IN, United States",,Clear
"Dayton,OH,US",04/08/2005 00:00:00,48.9,48.9,48.9,45.6,88.17,,11.2,,26.0,44.3,0.0,,0.0,6.0,100.0,1012.4,"Mist, Light Rain",39.7592,-84.1938,"Dayton, OH, United States","Dayton, OH, United States",,Overcast
"Dayton,OH,US",04/08/2005 01:00:00,47.9,47.9,47.9,42.8,82.44,,13.0,,26.0,42.5,0.0,,0.0,8.1,100.0,1012.9,Mist,39.7592,-84.1938,"Dayton, OH, United States","Dayton, OH, United States",,Overcast
"Dayton,OH,US",04/08/2005 02:00:00,47.4,47.4,47.4,41.4,79.44,,14.8,,21.0,41.4,0.0,,0.0,8.1,100.0,1013.1,Mist,39.7592,-84.1938,"Dayton, OH, United States","Dayton, OH, United States",,Overcast
"Dayton,OH,US",04/08/2005 03:00:00,45.9,45.9,45.9,40.4,80.83,,12.8,,35.0,40.1,0.0,,0.0,8.2,94.8,1012.7,,39.7592,-84.1938,"Dayton, OH, United States","Dayton, OH, United States",,Overcast
"Dayton,OH,US",04/08/2005 04:00:00,43.8,43.8,43.8,40.3,87.44,,13.5,36.9,21.0,37.1,0.0,,0.0,8.2,53.1,1012.7,,39.7592,-84.1938,"Dayton, OH, United States","Dayton, OH, United States",,Partially cloudy
"Dayton,OH,US",04/08/2005 05:00:00,42.3,42.3,42.3,39.8,90.81,,11.6,,21.0,35.9,0.0,,0.0,8.2,1.8,1012.7,,39.7592,-84.1938,"Dayton, OH, United States","Dayton, OH, United States",,Clear
"Dayton,OH,US",04/08/2005 06:00:00,40.7,40.7,40.7,39.7,96.17,,10.2,,27.0,34.5,0.0,,0.0,6.9,0.0,1013.1,Mist,39.7592,-84.1938,"Dayton, OH, United States","Dayton, OH, United States",,Clear
"Dayton,OH,US",04/08/2005 07:00:00,40.7,40.7,40.7,39.7,96.23,,8.6,,16.0,35.2,0.0,,0.0,5.6,3.9,1013.6,Mist,39.7592,-84.1938,"Dayton, OH, United States","Dayton, OH, United States",,Clear
"Dayton,OH,US",04/08/2005 08:00:00,42.2,42.2,42.2,40.2,92.3,,9.7,,16.0,36.5,0.0,,0.0,5.1,0.0,1014.4,Mist,39.7592,-84.1938,"Dayton, OH, United States","Dayton, OH, United States",,Clear
"Dayton,OH,US",04/08/2005 09:00:00,46.8,46.8,46.8,40.2,77.78,,13.6,,36.0,40.9,0.0,,0.0,7.4,0.0,1015.4,,39.7592,-84.1938,"Dayton, OH, United States","Dayton, OH, United States",,Clear
"Dayton,OH,US",04/08/2005 10:00:00,51.1,51.1,51.1,38.5,61.98,,12.2,,45.0,,0.0,,0.0,8.3,0.0,1016.1,,39.7592,-84.1938,"Dayton, OH, United States","Dayton, OH, United States",,Clear
"Dayton,OH,US",04/08/2005 11:00:00,53.3,53.3,53.3,37.5,55.09,,15.8,,33.0,,0.0,,0.0,9.9,0.0,1016.7,,39.7592,-84.1938,"Dayton, OH, United States","Dayton, OH, United States",,Clear
"Dayton,OH,US",04/08/2005 12:00:00,56.4,56.4,56.4,33.9,42.65,,16.9,,49.0,,0.0,,0.0,9.9,0.0,1017.0,,39.7592,-84.1938,"Dayton, OH, United States","Dayton, OH, United States",,Clear
"Dayton,OH,US",04/08/2005 13:00:00,61.2,61.2,61.2,37.8,41.9,,15.3,,46.0,,0.0,,0.0,8.3,0.0,1016.6,,39.7592,-84.1938,"Dayton, OH, United States","Dayton, OH, United States",,Clear
"Dayton,OH,US",04/08/2005 14:00:00,61.4,61.4,61.4,35.3,37.52,,16.1,,30.0,,0.0,,0.0,9.9,0.0,1016.4,,39.7592,-84.1938,"Dayton, OH, United States","Dayton, OH, United States",,Clear
"Dayton,OH,US",04/08/2005 15:00:00,63.1,63.1,63.1,35.9,36.28,,17.5,,36.0,,0.0,,0.0,8.3,0.0,1015.7,,39.7592,-84.1938,"Dayton, OH, United States","Dayton, OH, United States",,Clear
"Dayton,OH,US",04/08/2005 16:00:00,64.7,64.7,64.7,37.4,36.39,,15.9,,40.0,,0.0,,0.0,7.2,0.0,1014.8,,39.7592,-84.1938,"Dayton, OH, United States","Dayton, OH, United States",,Clear
"Dayton,OH,US",04/08/2005 17:00:00,63.5,63.5,63.5,36.8,36.98,,15.6,,35.0,,0.0,,0.0,8.3,0.0,1014.8,,39.7592,-84.1938,"Dayton, OH, United States","Dayton, OH, United States",,Clear
"Dayton,OH,US",04/08/2005 18:00:00,64.5,64.5,64.5,39.1,39.09,,14.1,,40.0,,0.0,,0.0,7.2,0.0,1014.5,,39.7592,-84.1938,"Dayton, OH, United States","Dayton, OH, United States",,Clear
"Dayton,OH,US",04/08/2005 19:00:00,62.7,62.7,62.7,37.5,39.14,,13.9,,40.0,,0.0,,0.0,7.2,26.7,1014.5,,39.7592,-84.1938,"Dayton, OH, United States","Dayton, OH, United States",,Partially cloudy
"Dayton,OH,US",04/08/2005 20:00:00,57.8,57.8,57.8,33.4,39.64,,13.8,,35.0,,0.0,,0.0,8.3,15.6,1015.1,,39.7592,-84.1938,"Dayton, OH, United States","Dayton, OH, United States",,Clear
"Dayton,OH,US",04/08/2005 21:00:00,53.1,53.1,53.1,33.3,46.79,,9.8,,35.0,,0.0,,0.0,8.3,26.7,1015.8,,39.7592,-84.1938,"Dayton, OH, United States","Dayton, OH, United States",,Partially cloudy
"Dayton,OH,US",04/08/2005 22:00:00,51.2,51.2,51.2,34.4,52.4,,12.1,,40.0,,0.0,,0.0,8.3,15.6,1016.7,,39.7592,-84.1938,"Dayton, OH, United States","Dayton, OH, United States",,Clear
"Dayton,OH,US",04/08/2005 23:00:00,48.2,48.2,48.2,34.3,58.44,,10.2,,44.0,43.8,0.0,,0.0,8.3,15.6,1017.3,,39.7592,-84.1938,"Dayton, OH, United States","Dayton, OH, United States",,Clear
"Toledo,OH,US",04/08/2005 00:00:00,43.0,43.0,43.0,37.8,81.59,,5.8,,54.0,39.5,0.0,,0.0,9.9,2.8,1014.9,,41.6538,-83.5363,"Toledo, OH, United States","Toledo, OH, United States",,Clear
"Toledo,OH,US",04/08/2005 01:00:00,40.8,40.8,40.8,36.4,84.23,,6.8,,46.0,36.2,0.0,,0.0,9.9,0.0,1015.3,,41.6538,-83.5363,"Toledo, OH, United States","Toledo, OH, United States",,Clear
"Toledo,OH,US",04/08/2005 02:00:00,41.0,41.0,41.0,35.3,79.91,,8.7,24.2,43.0,35.5,0.0,,0.0,9.9,0.0,1015.7,,41.6538,-83.5363,"Toledo, OH, United States","Toledo, OH, United States",,Clear
"Toledo,OH,US",04/08/2005 03:00:00,39.1,39.1,39.1,36.5,90.05,,7.4,,36.0,33.9,0.0,,0.0,9.9,0.0,1015.7,,41.6538,-83.5363,"Toledo, OH, United States","Toledo, OH, United States",,Clear
"Toledo,OH,US",04/08/2005 04:00:00,39.0,39.0,39.0,36.2,89.75,,4.9,,12.0,35.4,0.0,,0.0,9.9,0.0,1015.7,,41.6538,-83.5363,"Toledo, OH, United States","Toledo, OH, United States",,Clear
"Toledo,OH,US",04/08/2005 05:00:00,37.3,37.3,37.3,34.6,89.76,,5.2,,20.0,33.2,0.0,,0.0,9.8,0.0,1015.7,,41.6538,-83.5363,"Toledo, OH, United States","Toledo, OH, United States",,Clear
"Toledo,OH,US",04/08/2005 06:00:00,36.8,36.8,36.8,34.4,91.12,,4.3,,27.0,33.3,0.0,,0.0,8.5,0.0,1016.0,,41.6538,-83.5363,"Toledo, OH, United States","Toledo, OH, United States",,Clear
"Toledo,OH,US",04/08/2005 07:00:00,36.9,36.9,36.9,34.9,92.17,,8.1,,11.0,30.8,0.0,,0.0,8.4,2.8,1016.1,,41.6538,-83.5363,"Toledo, OH, United States","Toledo, OH, United States",,Clear
"Toledo,OH,US",04/08/2005 08:00:00,38.4,38.4,38.4,35.5,89.23,,5.6,,9.0,34.1,0.0,,0.0,7.3,2.8,1017.0,,41.6538,-83.5363,"Toledo, OH, United States","Toledo, OH, United States",,Clear
"Toledo,OH,US",04/08/2005 09:00:00,44.0,44.0,44.0,38.1,79.6,,6.5,,20.0,40.3,0.0,,0.0,9.9,0.0,1017.7,,41.6538,-83.5363,"Toledo, OH, United States","Toledo, OH, United States",,Clear
"Toledo,OH,US",04/08/2005 10:00:00,49.7,49.7,49.7,38.9,66.13,,8.7,,32.0,46.1,0.0,,0.0,9.9,0.0,1018.3,,41.6538,-83.5363,"Toledo, OH, United States","Toledo, OH, United States",,Clear
"Toledo,OH,US",04/08/2005 11:00:00,53.4,53.4,53.4,36.7,52.97,,13.8,,48.0,,0.0,,0.0,9.9,0.0,1018.4,,41.6538,-83.5363,"Toledo, OH, United States","Toledo, OH, United States",,Clear
"Toledo,OH,US",04/08/2005 12:00:00,55.9,55.9,55.9,35.8,46.72,,11.0,,44.0,,0.0,,0.0,9.9,0.0,1018.6,,41.6538,-83.5363,"Toledo, OH, United States","Toledo, OH, United States",,Clear
"Toledo,OH,US",04/08/2005 13:00:00,58.7,58.7,58.7,34.3,39.74,,10.8,,50.0,,0.0,,0.0,9.9,0.0,1018.6,,41.6538,-83.5363,"Toledo, OH, United States","Toledo, OH, United States",,Clear
"Toledo,OH,US",04/08/2005 14:00:00,60.6,60.6,60.6,34.8,38.03,,10.9,,65.0,,0.0,,0.0,9.9,0.0,1018.3,,41.6538,-83.5363,"Toledo, OH, United States","Toledo, OH, United States",,Clear
"Toledo,OH,US",04/08/2005 15:00:00,60.9,60.9,60.9,33.5,35.71,,12.7,,61.0,,0.0,,0.0,9.9,0.0,1017.9,,41.6538,-83.5363,"Toledo, OH, United States","Toledo, OH, United States",,Clear
"Toledo,OH,US",04/08/2005 16:00:00,61.5,61.5,61.5,35.5,37.84,,11.8,,76.0,,0.0,,0.0,9.9,2.8,1017.6,,41.6538,-83.5363,"Toledo, OH, United States","Toledo, OH, United States",,Clear
"Toledo,OH,US",04/08/2005 17:00:00,60.5,60.5,60.5,32.7,34.98,,14.7,,75.0,,0.0,,0.0,9.9,2.8,1017.6,,41.6538,-83.5363,"Toledo, OH, United States","Toledo, OH, United States",,Clear
"Toledo,OH,US",04/08/2005 18:00:00,59.6,59.6,59.6,29.8,32.13,,14.2,,83.0,,0.0,,0.0,9.9,2.8,1017.4,,41.6538,-83.5363,"Toledo, OH, United States","Toledo, OH, United States",,Clear
"Toledo,OH,US",04/08/2005 19:00:00,57.5,57.5,57.5,31.3,36.82,,13.3,,77.0,,0.0,,0.0,9.9,2.8,1017.4,,41.6538,-83.5363,"Toledo, OH, United States","Toledo, OH, United States",,Clear
"Toledo,OH,US",04/08/2005 20:00:00,54.5,54.5,54.5,31.4,41.15,,9.0,,84.0,,0.0,,0.0,9.9,2.8,1017.4,,41.6538,-83.5363,"Toledo, OH, United States","Toledo, OH, United States",,Clear
"Toledo,OH,US",04/08/2005 21:00:00,50.8,50.8,50.8,32.2,48.71,,6.6,,80.0,,0.0,,0.0,9.9,0.0,1017.7,,41.6538,-83.5363,"Toledo, OH, United States","Toledo, OH, United States",,Clear
"Toledo,OH,US",04/08/2005 22:00:00,49.1,49.1,49.1,32.8,53.09,,9.0,,59.0,45.3,0.0,,0.0,9.9,0.0,1018.4,,41.6538,-83.5363,"Toledo, OH, United States","Toledo, OH, United States",,Clear
"Toledo,OH,US",04/08/2005 23:00:00,47.1,47.1,47.1,31.0,53.39,,10.3,,59.0,42.3,0.0,,0.0,9.9,0.0,1019.0,,41.6538,-83.5363,"Toledo, OH, United States","Toledo, OH, United States",,Clear
"Cleveland,OH,US",04/08/2005 00:00:00,40.5,40.5,40.5,37.6,89.27,,7.5,,20.0,35.4,0.0,,0.0,9.9,100.0,1015.3,,41.5047,-81.6908,"Cleveland, OH, United States","Cleveland, OH, United States",,Overcast
"Cleveland,OH,US",04/08/2005 01:00:00,39.7,39.7,39.7,36.5,88.15,,8.3,,29.0,34.1,0.0,,0.0,9.7,100.0,1015.5,,41.5047,-81.6908,"Cleveland, OH, United States","Cleveland, OH, United States",,Overcast
"Cleveland,OH,US",04/08/2005 02:00:00,40.2,40.2,40.2,37.4,89.72,,7.3,,29.0,35.2,0.0,,0.0,9.5,80.1,1014.9,Mist,41.5047,-81.6908,"Cleveland, OH, United States","Cleveland, OH, United States",,Overcast
"Cleveland,OH,US",04/08/2005 03:00:00,38.4,38.4,38.4,35.4,89.19,,5.9,,19.0,33.9,0.0,,0.0,7.9,48.5,1014.9,Mist,41.5047,-81.6908,"Cleveland, OH, United States","Cleveland, OH, United States",,Partially cloudy
"Cleveland,OH,US",04/08/2005 04:00:00,37.3,37.3,37.3,35.2,92.07,,5.0,,353.0,33.3,0.0,,0.0,4.9,45.8,1014.9,Mist,41.5047,-81.6908,"Cleveland, OH, United States","Cleveland, OH, United States",,Partially cloudy
"Cleveland,OH,US",04/08/2005 05:00:00,37.1,37.1,37.1,35.0,92.06,,7.2,,26.0,31.5,0.0,,0.0,4.8,80.1,1015.2,Mist,41.5047,-81.6908,"Cleveland, OH, United States","Cleveland, OH, United States",,Overcast
"Cleveland,OH,US",04/08/2005 06:00:00,38.0,38.0,38.0,35.1,89.24,,9.1,,35.0,31.6,0.0,,0.0,6.8,1.7,1015.3,Mist,41.5047,-81.6908,"Cleveland, OH, United States","Cleveland, OH, United States",,Clear
"Cleveland,OH,US",04/08/2005 07:00:00,37.2,37.2,37.2,34.9,91.35,,6.4,,55.0,32.2,0.0,,0.0,7.3,1.7,1016.0,,41.5047,-81.6908,"Cleveland, OH, United States","Cleveland, OH, United States",,Clear
"Cleveland,OH,US",04/08/2005 08:00:00,39.8,39.8,39.8,35.0,83.02,,9.2,,47.0,33.7,0.0,,0.0,6.7,1.7,1016.6,Smoke Or Haze,41.5047,-81.6908,"Cleveland, OH, United States","Cleveland, OH, United States",,Clear
"Cleveland,OH,US",04/08/2005 09:00:00,43.2,43.2,43.2,37.1,78.72,,13.8,,33.0,36.3,0.0,,0.0,8.9,2.8,1017.3,,41.5047,-81.6908,"Cleveland, OH, United States","Cleveland, OH, United States",,Clear
"Cleveland,OH,US",04/08/2005 10:00:00,45.3,45.3,45.3,37.8,74.9,,15.7,,42.0,38.5,0.0,,0.0,9.9,1.7,1018.0,,41.5047,-81.6908,"Cleveland, OH, United States","Cleveland, OH, United States",,Clear
"Cleveland,OH,US",04/08/2005 11:00:00,47.7,47.7,47.7,37.9,68.57,,13.6,,31.0,42.1,0.0,,0.0,9.9,1.7,1018.7,,41.5047,-81.6908,"Cleveland, OH, United States","Cleveland, OH, United States",,Clear
"Cleveland,OH,US",04/08/2005 12:00:00,49.9,49.9,49.9,36.6,60.12,,15.8,,22.0,44.3,0.0,,0.0,9.9,0.0,1018.9,,41.5047,-81.6908,"Cleveland, OH, United States","Cleveland, OH, United States",,Clear
"Cleveland,OH,US",04/08/2005 13:00:00,52.3,52.3,52.3,35.2,52.08,,14.7,,22.0,,0.0,,0.0,9.9,0.0,1018.9,,41.5047,-81.6908,"Cleveland, OH, United States","Cleveland, OH, United States",,Clear
"Cleveland,OH,US",04/08/2005 14:00:00,54.1,54.1,54.1,34.3,47.0,,15.6,,33.0,,0.0,,0.0,9.9,0.0,1018.6,,41.5047,-81.6908,"Cleveland, OH, United States","Cleveland, OH, United States",,Clear
"Cleveland,OH,US",04/08/2005 15:00:00,54.2,54.2,54.2,35.1,48.25,,16.6,,23.0,,0.0,,0.0,9.9,0.0,1018.6,,41.5047,-81.6908,"Cleveland, OH, United States","Cleveland, OH, United States",,Clear
"Cleveland,OH,US",04/08/2005 16:00:00,54.2,54.2,54.2,34.4,46.92,,16.3,,21.0,,0.0,,0.0,9.9,0.0,1018.2,,41.5047,-81.6908,"Cleveland, OH, United States","Cleveland, OH, United States",,Clear
"Cleveland,OH,US",04/08/2005 17:00:00,53.3,53.3,53.3,33.5,46.78,,17.1,,13.0,,0.0,,0.0,9.9,0.0,1018.2,,41.5047,-81.6908,"Cleveland, OH, United States","Cleveland, OH, United States",,Clear
"Cleveland,OH,US",04/08/2005 18:00:00,53.1,53.1,53.1,30.5,41.8,,13.3,,37.0,,0.0,,0.0,9.9,0.0,1018.2,,41.5047,-81.6908,"Cleveland, OH, United States","Cleveland, OH, United States",,Clear
"Cleveland,OH,US",04/08/2005 19:00:00,53.5,53.5,53.5,29.9,40.19,,10.2,,22.0,,0.0,,0.0,9.9,27.5,1018.0,,41.5047,-81.6908,"Cleveland, OH, United States","Cleveland, OH, United States",,Partially cloudy
"Cleveland,OH,US",04/08/2005 20:00:00,50.5,50.5,50.5,29.8,44.67,,10.9,,22.0,,0.0,,0.0,9.9,27.5,1017.6,,41.5047,-81.6908,"Cleveland, OH, United States","Cleveland, OH, United States",,Partially cloudy
"Cleveland,OH,US",04/08/2005 21:00:00,47.4,47.4,47.4,29.9,50.44,,9.2,,29.0,43.1,0.0,,0.0,9.9,27.5,1018.0,,41.5047,-81.6908,"Cleveland, OH, United States","Cleveland, OH, United States",,Partially cloudy
"Cleveland,OH,US",04/08/2005 22:00:00,45.3,45.3,45.3,30.8,56.58,,9.2,,38.0,40.5,0.0,,0.0,9.9,1.7,1019.0,,41.5047,-81.6908,"Cleveland, OH, United States","Cleveland, OH, United States",,Clear
"Cleveland,OH,US",04/08/2005 23:00:00,44.4,44.4,44.4,30.1,56.81,,8.2,,30.0,39.9,0.0,,0.0,9.9,25.8,1019.1,,41.5047,-81.6908,"Cleveland, OH, United States","Cleveland, OH, United States",,Partially cloudy
"Erie,PA,US",04/08/2005 00:00:00,42.3,42.3,42.3,37.4,82.81,,15.7,,48.0,34.6,0.0,,0.0,9.7,100.0,1014.5,Mist,42.1298,-80.0855,"Erie, PA, United States","Erie, PA, United States",,Overcast
"Erie,PA,US",04/08/2005 01:00:00,41.2,41.2,41.2,36.1,81.91,,12.5,,58.0,34.2,0.0,,0.0,9.8,6.9,1014.5,,42.1298,-80.0855,"Erie, PA, United States","Erie, PA, United States",,Clear
"Erie,PA,US",04/08/2005 02:00:00,39.9,39.9,39.9,36.0,85.78,,7.0,,87.0,35.0,0.0,,0.0,9.9,6.4,1014.5,,42.1298,-80.0855,"Erie, PA, United States","Erie, PA, United States",,Clear
"Erie,PA,US",04/08/2005 03:00:00,38.1,38.1,38.1,35.1,88.74,,3.6,,77.0,35.6,0.0,,0.0,9.9,6.2,1014.5,,42.1298,-80.0855,"Erie, PA, United States","Erie, PA, United States",,Clear
"Erie,PA,US",04/08/2005 04:00:00,36.0,36.0,36.0,34.2,93.04,,5.8,,11.0,31.1,0.0,,0.0,5.3,2.7,1014.5,Mist,42.1298,-80.0855,"Erie, PA, United States","Erie, PA, United States",,Clear
"Erie,PA,US",04/08/2005 05:00:00,35.1,35.1,35.1,33.3,93.08,,4.6,,77.0,31.0,0.0,,0.0,5.1,90.0,1014.8,Mist,42.1298,-80.0855,"Erie, PA, United States","Erie, PA, United States",,Overcast
"Erie,PA,US",04/08/2005 06:00:00,34.1,34.1,34.1,32.2,92.51,,0.3,,30.0,,0.0,,0.0,2.6,6.9,1015.5,"Mist, Fog",42.1298,-80.0855,"Erie, PA, United States","Erie, PA, United States",,Clear
"Erie,PA,US",04/08/2005 07:00:00,34.1,34.1,34.1,33.2,96.37,,3.6,,58.0,30.9,0.0,,0.0,2.2,1.4,1015.8,Mist,42.1298,-80.0855,"Erie, PA, United States","Erie, PA, United States",,Clear
"Erie,PA,US",04/08/2005 08:00:00,35.0,35.0,35.0,34.0,96.28,,3.6,,77.0,32.0,0.0,,0.0,2.2,0.0,1016.2,"Mist, Fog",42.1298,-80.0855,"Erie, PA, United States","Erie, PA, United States",,Clear
"Erie,PA,US",04/08/2005 09:00:00,41.1,41.1,41.1,37.9,88.32,,7.0,,68.0,36.5,0.0,,0.0,4.2,0.0,1016.8,Mist,42.1298,-80.0855,"Erie, PA, United States","Erie, PA, United States",,Clear
"Erie,PA,US",04/08/2005 10:00:00,46.1,46.1,46.1,37.9,72.81,,9.1,,47.0,41.6,0.0,,0.0,9.9,0.0,1017.5,,42.1298,-80.0855,"Erie, PA, United States","Erie, PA, United States",,Clear
"Erie,PA,US",04/08/2005 11:00:00,46.3,46.3,46.3,37.0,69.86,,9.3,,30.0,41.8,0.0,,0.0,9.9,0.0,1018.2,,42.1298,-80.0855,"Erie, PA, United States","Erie, PA, United States",,Clear
"Erie,PA,US",04/08/2005 12:00:00,44.5,44.5,44.5,36.9,74.43,,5.2,,342.0,41.6,0.0,,0.0,9.9,0.0,1018.5,,42.1298,-80.0855,"Erie, PA, United States","Erie, PA, United States",,Clear
"Erie,PA,US",04/08/2005 13:00:00,47.5,47.5,47.5,35.6,63.19,,9.2,,10.0,43.2,0.0,,0.0,9.9,0.0,1018.2,,42.1298,-80.0855,"Erie, PA, United States","Erie, PA, United States",,Clear
"Erie,PA,US",04/08/2005 14:00:00,49.3,49.3,49.3,35.5,58.8,,10.5,,19.0,45.0,0.0,,0.0,9.9,0.0,1018.5,,42.1298,-80.0855,"Erie, PA, United States","Erie, PA, United States",,Clear
"Erie,PA,US",04/08/2005 15:00:00,51.5,51.5,51.5,34.7,52.54,,9.3,,42.0,,0.0,,0.0,9.9,0.0,1018.2,,42.1298,-80.0855,"Erie, PA, United States","Erie, PA, United States",,Clear
"Erie,PA,US",04/08/2005 16:00:00,52.4,52.4,52.4,32.0,45.76,,10.5,,11.0,,0.0,,0.0,9.9,0.0,1017.8,,42.1298,-80.0855,"Erie, PA, United States","Erie, PA, United States",,Clear
"Erie,PA,US",04/08/2005 17:00:00,54.0,54.0,54.0,32.0,43.03,,7.5,,20.0,,0.0,,0.0,9.9,0.0,1017.8,,42.1298,-80.0855,"Erie, PA, United States","Erie, PA, United States",,Clear
"Erie,PA,US",04/08/2005 18:00:00,53.1,53.1,53.1,30.0,40.95,,8.3,,29.0,,0.0,,0.0,9.9,0.0,1017.8,,42.1298,-80.0855,"Erie, PA, United States","Erie, PA, United States",,Clear
"Erie,PA,US",04/08/2005 19:00:00,49.1,49.1,49.1,31.8,51.1,,5.1,,1.0,47.1,0.0,,0.0,9.9,0.0,1017.8,,42.1298,-80.0855,"Erie, PA, United States","Erie, PA, United States",,Clear
"Erie,PA,US",04/08/2005 20:00:00,44.3,44.3,44.3,31.8,61.15,,3.6,,30.0,42.7,0.0,,0.0,9.9,0.0,1017.6,,42.1298,-80.0855,"Erie, PA, United States","Erie, PA, United States",,Clear
"Erie,PA,US",04/08/2005 21:00:00,42.5,42.5,42.5,31.8,65.65,,5.9,,49.0,38.8,0.0,,0.0,9.9,0.0,1017.9,,42.1298,-80.0855,"Erie, PA, United States","Erie, PA, United States",,Clear
"Erie,PA,US",04/08/2005 22:00:00,41.3,41.3,41.3,30.7,65.66,,4.9,,67.0,38.2,0.0,,0.0,9.9,0.0,1018.6,,42.1298,-80.0855,"Erie, PA, United States","Erie, PA, United States",,Clear
"Erie,PA,US",04/08/2005 23:00:00,40.0,40.0,40.0,30.7,69.02,,6.0,,58.0,35.8,0.0,,0.0,9.9,0.0,1019.2,,42.1298,-80.0855,"Erie, PA, United States","Erie, PA, United States",,Clear
"Buffalo,NY,US",04/08/2005 00:00:00,42.6,42.6,42.6,38.8,86.13,,4.4,,358.0,40.0,0.0,,0.0,9.9,70.8,1014.6,,42.8854,-78.8785,"Buffalo, NY, United States","Buffalo, NY, United States",,Partially cloudy
"Buffalo,NY,US",04/08/2005 01:00:00,40.8,40.8,40.8,38.1,89.89,,0.7,,90.0,,0.0,,0.0,9.9,23.6,1014.6,,42.8854,-78.8785,"Buffalo, NY, United States","Buffalo, NY, United States",,Clear
"Buffalo,NY,US",04/08/2005 02:00:00,38.5,38.5,38.5,37.7,96.74,,2.6,,360.0,,0.0,,0.0,9.7,0.0,1014.9,,42.8854,-78.8785,"Buffalo, NY, United States","Buffalo, NY, United States",,Clear
"Buffalo,NY,US",04/08/2005 03:00:00,38.1,38.1,38.1,36.8,94.93,,1.0,,280.0,,0.0,,0.0,8.9,0.0,1014.7,Mist,42.8854,-78.8785,"Buffalo, NY, United States","Buffalo, NY, United States",,Clear
"Buffalo,NY,US",04/08/2005 04:00:00,37.2,37.2,37.2,35.6,93.91,,0.0,,,,0.0,,0.0,7.5,0.0,1014.7,Mist,42.8854,-78.8785,"Buffalo, NY, United States","Buffalo, NY, United States",,Clear
"Buffalo,NY,US",04/08/2005 05:00:00,36.3,36.3,36.3,35.6,97.3,,3.7,,341.0,33.4,0.0,,0.0,5.0,0.0,1014.7,Mist,42.8854,-78.8785,"Buffalo, NY, United States","Buffalo, NY, United States",,Clear
"Buffalo,NY,US",04/08/2005 06:00:00,35.1,35.1,35.1,34.6,98.18,,3.7,,340.0,31.9,0.0,,0.0,4.0,19.2,1015.2,"Mist, Fog",42.8854,-78.8785,"Buffalo, NY, United States","Buffalo, NY, United States",,Clear
"Buffalo,NY,US",04/08/2005 07:00:00,34.8,34.8,34.8,34.2,97.73,,0.0,,,,0.0,,0.0,2.4,30.0,1016.0,"Mist, Fog",42.8854,-78.8785,"Buffalo, NY, United States","Buffalo, NY, United States",,Partially cloudy
"Buffalo,NY,US",04/08/2005 08:00:00,35.7,35.7,35.7,35.3,98.49,,0.0,,,,0.0,,0.0,5.2,34.3,1016.6,Mist,42.8854,-78.8785,"Buffalo, NY, United States","Buffalo, NY, United States",,Partially cloudy
"Buffalo,NY,US",04/08/2005 09:00:00,41.3,41.3,41.3,38.7,90.45,,2.6,,170.0,,0.0,,0.0,6.8,50.0,1017.0,,42.8854,-78.8785,"Buffalo, NY, United States","Buffalo, NY, United States",,Partially cloudy
"Buffalo,NY,US",04/08/2005 10:00:00,45.3,45.3,45.3,37.6,74.11,,3.7,,190.0,43.7,0.0,,0.0,9.9,50.0,1017.4,,42.8854,-78.8785,"Buffalo, NY, United States","Buffalo, NY, United States",,Partially cloudy
"Buffalo,NY,US",04/08/2005 11:00:00,49.1,49.1,49.1,38.7,67.33,,1.1,,39.0,,0.01,,0.0,9.9,50.0,1017.7,,42.8854,-78.8785,"Buffalo, NY, United States","Buffalo, NY, United States",,"Rain, Partially cloudy"
"Buffalo,NY,US",04/08/2005 12:00:00,51.9,51.9,51.9,39.3,61.97,,5.6,,301.0,,0.0,,0.0,9.9,50.0,1017.9,,42.8854,-78.8785,"Buffalo, NY, United States","Buffalo, NY, United States",,Partially cloudy
"Buffalo,NY,US",04/08/2005 13:00:00,53.9,53.9,53.9,39.3,57.6,,6.7,,316.0,,0.0,,0.0,9.9,50.0,1017.7,,42.8854,-78.8785,"Buffalo, NY, United States","Buffalo, NY, United States",,Partially cloudy
"Buffalo,NY,US",04/08/2005 14:00:00,55.1,55.1,55.1,39.0,54.44,,6.3,,300.0,,0.0,,0.0,9.9,30.0,1017.7,,42.8854,-78.8785,"Buffalo, NY, United States","Buffalo, NY, United States",,Partially cloudy
"Buffalo,NY,US",04/08/2005 15:00:00,56.2,56.2,56.2,40.0,54.39,,9.6,,329.0,,0.0,,0.0,9.9,45.7,1017.7,,42.8854,-78.8785,"Buffalo, NY, United States","Buffalo, NY, United States",,Partially cloudy
"Buffalo,NY,US",04/08/2005 16:00:00,57.1,57.1,57.1,33.5,40.8,,6.5,,346.0,,0.0,,0.0,9.9,45.7,1017.4,,42.8854,-78.8785,"Buffalo, NY, United States","Buffalo, NY, United States",,Partially cloudy
"Buffalo,NY,US",04/08/2005 17:00:00,57.1,57.1,57.1,30.4,36.06,,8.3,,338.0,,0.0,,0.0,9.9,30.0,1017.7,,42.8854,-78.8785,"Buffalo, NY, United States","Buffalo, NY, United States",,Partially cloudy
"Buffalo,NY,US",04/08/2005 18:00:00,56.2,56.2,56.2,29.0,35.16,,11.2,,339.0,,0.0,,0.0,9.9,30.0,1017.9,,42.8854,-78.8785,"Buffalo, NY, United States","Buffalo, NY, United States",,Partially cloudy
"Buffalo,NY,US",04/08/2005 19:00:00,55.3,55.3,55.3,29.0,36.33,,7.2,,14.0,,0.0,,0.0,9.9,45.7,1017.9,,42.8854,-78.8785,"Buffalo, NY, United States","Buffalo, NY, United States",,Partially cloudy
"Buffalo,NY,US",04/08/2005 20:00:00,51.9,51.9,51.9,27.3,38.44,,6.7,,30.0,,0.0,,0.0,9.9,23.6,1018.3,,42.8854,-78.8785,"Buffalo, NY, United States","Buffalo, NY, United States",,Clear
"Buffalo,NY,US",04/08/2005 21:00:00,50.1,50.1,50.1,29.0,44.03,,4.4,,40.0,,0.0,,0.0,9.9,0.0,1018.7,,42.8854,-78.8785,"Buffalo, NY, United States","Buffalo, NY, United States",,Clear
"Buffalo,NY,US",04/08/2005 22:00:00,48.4,48.4,48.4,28.7,46.2,,4.6,,40.0,46.7,0.0,,0.0,9.9,0.0,1019.4,,42.8854,-78.8785,"Buffalo, NY, United States","Buffalo, NY, United States",,Clear
"Buffalo,NY,US",04/08/2005 23:00:00,46.6,46.6,46.6,29.4,51.03,,3.7,,47.0,45.2,0.0,,0.0,9.9,0.0,1019.7,,42.8854,-78.8785,"Buffalo, NY, United States","Buffalo, NY, United States",,Clear
"Rochester,NY,US",04/08/2005 00:00:00,41.1,41.1,41.1,35.9,81.51,,13.8,,20.0,33.6,0.0,,0.0,9.9,100.0,1014.6,,43.1558,-77.6163,"Rochester, NY, United States","Rochester, NY, United States",,Overcast
"Rochester,NY,US",04/08/2005 01:00:00,41.1,41.1,41.1,35.9,81.48,,6.9,,39.0,36.5,0.0,,0.0,9.9,90.1,1014.9,,43.1558,-77.6163,"Rochester, NY, United States","Rochester, NY, United States",,Overcast
"Rochester,NY,US",04/08/2005 02:00:00,39.0,39.0,39.0,35.0,85.45,,3.4,,20.0,36.7,0.0,,0.0,9.9,50.5,1014.9,,43.1558,-77.6163,"Rochester, NY, United States","Rochester, NY, United States",,Partially cloudy
"Rochester,NY,US",04/08/2005 03:00:00,35.0,35.0,35.0,34.1,96.28,,3.4,,222.0,32.2,0.0,,0.0,9.9,50.5,1014.9,,43.1558,-77.6163,"Rochester, NY, United States","Rochester, NY, United States",,Partially cloudy
"Rochester,NY,US",04/08/2005 04:00:00,34.1,34.1,34.1,34.1,99.81,,3.3,,220.0,31.3,0.0,,0.0,9.9,0.9,1014.6,,43.1558,-77.6163,"Rochester, NY, United States","Rochester, NY, United States",,Clear
"Rochester,NY,US",04/08/2005 05:00:00,33.2,33.2,33.2,33.2,99.88,,0.0,,,,0.0,,0.0,8.1,30.6,1014.9,,43.1558,-77.6163,"Rochester, NY, United States","Rochester, NY, United States",,Partially cloudy
"Rochester,NY,US",04/08/2005 06:00:00,32.1,32.1,32.1,32.1,99.88,,0.0,,,,0.0,,0.0,9.9,50.5,1015.6,,43.1558,-77.6163,"Rochester, NY, United States","Rochester, NY, United States",,Partially cloudy
"Rochester,NY,US",04/08/2005 07:00:00,32.1,32.1,32.1,32.1,99.89,,3.3,,250.0,29.0,0.0,,0.0,1.9,30.6,1016.3,Mist,43.1558,-77.6163,"Rochester, NY, United States","Rochester, NY, United States",,Partially cloudy
"Rochester,NY,US",04/08/2005 08:00:00,35.0,35.0,35.0,35.0,99.88,,3.3,,210.0,32.3,0.0,,0.0,8.1,29.7,1016.9,,43.1558,-77.6163,"Rochester, NY, United States","Rochester, NY, United States",,Partially cloudy
"Rochester,NY,US",04/08/2005 09:00:00,41.1,41.1,41.1,38.0,88.63,,5.8,,230.0,37.2,0.0,,0.0,9.9,30.2,1017.3,,43.1558,-77.6163,"Rochester, NY, United States","Rochester, NY, United States",,Partially cloudy
"Rochester,NY,US",04/08/2005 10:00:00,44.0,44.0,44.0,38.0,79.38,,6.9,,,40.0,0.0,,0.0,9.9,29.7,1017.6,,43.1558,-77.6163,"Rochester, NY, United States","Rochester, NY, United States",,Partially cloudy
"Rochester,NY,US",04/08/2005 11:00:00,47.9,47.9,47.9,38.0,68.36,,3.4,,220.0,47.0,0.0,,0.0,9.9,29.7,1017.9,,43.1558,-77.6163,"Rochester, NY, United States","Rochester, NY, United States",,Partially cloudy
"Rochester,NY,US",04/08/2005 12:00:00,51.2,51.2,51.2,37.1,58.49,,4.7,,360.0,,0.0,,0.0,9.9,29.7,1017.9,,43.1558,-77.6163,"Rochester, NY, United States","Rochester, NY, United States",,Partially cloudy
"Rochester,NY,US",04/08/2005 13:00:00,51.2,51.2,51.2,39.8,64.91,,11.4,,10.0,,0.0,,0.0,9.9,49.5,1017.9,,43.1558,-77.6163,"Rochester, NY, United States","Rochester, NY, United States",,Partially cloudy
"Rochester,NY,US",04/08/2005 14:00:00,53.0,53.0,53.0,38.0,56.58,,11.4,,320.0,,0.0,,0.0,9.9,89.1,1018.3,,43.1558,-77.6163,"Rochester, NY, United States","Rochester, NY, United States",,Overcast
"Rochester,NY,US",04/08/2005 15:00:00,56.0,56.0,56.0,35.8,46.54,,12.7,,19.0,,0.0,,0.0,9.9,49.5,1017.9,,43.1558,-77.6163,"Rochester, NY, United States","Rochester, NY, United States",,Partially cloudy
"Rochester,NY,US",04/08/2005 16:00:00,55.1,55.1,55.1,28.2,35.34,,8.0,,350.0,,0.0,,0.0,9.9,30.2,1017.9,,43.1558,-77.6163,"Rochester, NY, United States","Rochester, NY, United States",,Partially cloudy
"Rochester,NY,US",04/08/2005 17:00:00,56.0,56.0,56.0,28.2,34.26,,9.2,,10.0,,0.0,,0.0,9.9,30.2,1017.9,,43.1558,-77.6163,"Rochester, NY, United States","Rochester, NY, United States",,Partially cloudy
"Rochester,NY,US",04/08/2005 18:00:00,53.9,53.9,53.9,29.1,38.34,,11.4,,10.0,,0.0,,0.0,9.9,30.2,1018.3,,43.1558,-77.6163,"Rochester, NY, United States","Rochester, NY, United States",,Partially cloudy
"Rochester,NY,US",04/08/2005 19:00:00,53.0,53.0,53.0,30.0,41.07,,8.1,,10.0,,0.0,,0.0,9.9,29.7,1018.3,,43.1558,-77.6163,"Rochester, NY, United States","Rochester, NY, United States",,Partially cloudy
"Rochester,NY,US",04/08/2005 20:00:00,51.2,51.2,51.2,29.9,43.87,,6.9,,350.0,,0.0,,0.0,9.9,0.0,1018.6,,43.1558,-77.6163,"Rochester, NY, United States","Rochester, NY, United States",,Clear
"Rochester,NY,US",04/08/2005 21:00:00,47.9,47.9,47.9,29.9,49.47,,3.3,,10.0,47.0,0.0,,0.0,9.9,0.0,1019.3,,43.1558,-77.6163,"Rochester, NY, United States","Rochester, NY, United States",,Clear
"Rochester,NY,US",04/08/2005 22:00:00,44.0,44.0,44.0,34.9,70.36,,0.0,,,,0.0,,0.0,9.9,0.0,1019.6,,43.1558,-77.6163,"Rochester, NY, United States","Rochester, NY, United States",,Clear
"Rochester,NY,US",04/08/2005 23:00:00,43.0,43.0,43.0,32.1,65.01,,0.0,,,,0.0,,0.0,9.9,0.0,1020.0,,43.1558,-77.6163,"Rochester, NY, United States","Rochester, NY, United States",,Clear
"Syracuse,NY,US",04/08/2005 00:00:00,42.0,42.0,42.0,37.9,85.22,,11.1,,331.0,35.7,0.0,,0.0,9.9,100.0,1013.5,,43.0504,-76.1474,"Syracuse, NY, United States","Syracuse, NY, United States",,Overcast
"Syracuse,NY,US",04/08/2005 01:00:00,40.9,40.9,40.9,37.0,85.72,,7.0,,331.0,36.3,0.0,,0.0,9.9,100.0,1013.9,,43.0504,-76.1474,"Syracuse, NY, United States","Syracuse, NY, United States",,Overcast
"Syracuse,NY,US",04/08/2005 02:00:00,39.8,39.8,39.8,35.8,85.54,,9.8,,339.0,33.5,0.0,,0.0,9.9,100.0,1014.2,,43.0504,-76.1474,"Syracuse, NY, United States","Syracuse, NY, United States",,Overcast
"Syracuse,NY,US",04/08/2005 03:00:00,39.8,39.8,39.8,35.0,82.86,,7.7,,319.0,34.5,0.0,,0.0,9.9,100.0,1014.6,,43.0504,-76.1474,"Syracuse, NY, United States","Syracuse, NY, United States",,Overcast
"Syracuse,NY,US",04/08/2005 04:00:00,39.8,39.8,39.8,35.0,82.86,,8.9,,8.0,33.9,0.0,,0.0,9.9,100.0,1014.6,,43.0504,-76.1474,"Syracuse, NY, United States","Syracuse, NY, United States",,Overcast
"Syracuse,NY,US",04/08/2005 05:00:00,39.8,39.8,39.8,35.7,85.32,,4.7,,331.0,36.4,0.0,,0.0,9.9,100.0,1014.9,,43.0504,-76.1474,"Syracuse, NY, United States","Syracuse, NY, United States",,Overcast
"Syracuse,NY,US",04/08/2005 06:00:00,39.8,39.8,39.8,35.7,85.32,,4.4,,330.0,36.7,0.0,,0.0,9.9,100.0,1015.6,,43.0504,-76.1474,"Syracuse, NY, United States","Syracuse, NY, United States",,Overcast
"Syracuse,NY,US",04/08/2005 07:00:00,38.9,38.9,38.9,35.0,85.6,,4.4,,340.0,35.8,0.0,,0.0,9.9,100.0,1016.3,,43.0504,-76.1474,"Syracuse, NY, United States","Syracuse, NY, United States",,Overcast
"Syracuse,NY,US",04/08/2005 08:00:00,39.8,39.8,39.8,34.2,80.05,,4.6,,316.0,36.6,0.0,,0.0,9.9,90.7,1017.3,,43.0504,-76.1474,"Syracuse, NY, United States","Syracuse, NY, United States",,Overcast
"Syracuse,NY,US",04/08/2005 09:00:00,41.1,41.1,41.1,35.0,78.75,,4.7,,295.0,38.0,0.0,,0.0,9.9,90.0,1017.5,,43.0504,-76.1474,"Syracuse, NY, United States","Syracuse, NY, United States",,Overcast
"Syracuse,NY,US",04/08/2005 10:00:00,44.0,44.0,44.0,35.0,70.52,,0.1,,,,0.0,,0.0,9.9,48.5,1017.9,,43.0504,-76.1474,"Syracuse, NY, United States","Syracuse, NY, United States",,Partially cloudy
"Syracuse,NY,US",04/08/2005 11:00:00,47.0,47.0,47.0,36.0,65.31,,5.0,,216.0,44.7,0.0,,0.0,9.9,52.9,1017.9,,43.0504,-76.1474,"Syracuse, NY, United States","Syracuse, NY, United States",,Partially cloudy
"Syracuse,NY,US",04/08/2005 12:00:00,49.8,49.8,49.8,35.9,58.48,,8.1,,311.0,46.5,0.0,,0.0,9.9,53.6,1017.9,,43.0504,-76.1474,"Syracuse, NY, United States","Syracuse, NY, United States",,Partially cloudy
"Syracuse,NY,US",04/08/2005 13:00:00,51.8,51.8,51.8,35.1,52.9,,9.0,,320.0,,0.0,,0.0,9.9,90.0,1017.9,,43.0504,-76.1474,"Syracuse, NY, United States","Syracuse, NY, United States",,Overcast
"Syracuse,NY,US",04/08/2005 14:00:00,53.6,53.6,53.6,37.9,55.11,,11.2,,310.0,,0.0,,0.0,9.9,52.9,1017.9,,43.0504,-76.1474,"Syracuse, NY, United States","Syracuse, NY, United States",,Partially cloudy
"Syracuse,NY,US",04/08/2005 15:00:00,54.9,54.9,54.9,35.9,48.56,,11.4,,327.0,,0.0,,0.0,9.9,83.4,1017.9,,43.0504,-76.1474,"Syracuse, NY, United States","Syracuse, NY, United States",,Overcast
"Syracuse,NY,US",04/08/2005 16:00:00,55.8,55.8,55.8,34.2,43.87,,12.6,,293.0,,0.0,,0.0,9.9,46.4,1017.6,,43.0504,-76.1474,"Syracuse, NY, United States","Syracuse, NY, United States",,Partially cloudy
"Syracuse,NY,US",04/08/2005 17:00:00,54.9,54.9,54.9,30.1,38.52,,9.3,,320.0,,0.0,,0.0,9.9,46.4,1017.9,,43.0504,-76.1474,"Syracuse, NY, United States","Syracuse, NY, United States",,Partially cloudy
"Syracuse,NY,US",04/08/2005 18:00:00,53.7,53.7,53.7,29.3,38.85,,12.2,,319.0,,0.0,,0.0,9.9,27.8,1018.3,,43.0504,-76.1474,"Syracuse, NY, United States","Syracuse, NY, United States",,Partially cloudy
"Syracuse,NY,US",04/08/2005 19:00:00,51.9,51.9,51.9,30.1,42.95,,5.8,,360.0,,0.0,,0.0,9.9,27.8,1018.6,,43.0504,-76.1474,"Syracuse, NY, United States","Syracuse, NY, United States",,Partially cloudy
"Syracuse,NY,US",04/08/2005 20:00:00,48.6,48.6,48.6,30.1,48.51,,5.4,,10.0,46.4,0.0,,0.0,9.9,0.0,1019.0,,43.0504,-76.1474,"Syracuse, NY, United States","Syracuse, NY, United States",,Clear
"Syracuse,NY,US",04/08/2005 21:00:00,46.7,46.7,46.7,30.2,52.41,,5.4,,340.0,44.1,0.0,,0.0,9.9,0.0,1019.3,,43.0504,-76.1474,"Syracuse, NY, United States","Syracuse, NY, United States",,Clear
"Syracuse,NY,US",04/08/2005 22:00:00,42.8,42.8,42.8,31.2,63.18,,5.3,,20.0,39.5,0.0,,0.0,9.9,0.0,1020.0,,43.0504,-76.1474,"Syracuse, NY, United States","Syracuse, NY, United States",,Clear
"Syracuse,NY,US",04/08/2005 23:00:00,41.8,41.8,41.8,32.2,68.46,,4.3,,360.0,39.2,0.0,,0.0,9.9,0.0,1020.3,,43.0504,-76.1474,"Syracuse, NY, United States","Syracuse, NY, United States",,Clear
"Burlington,VT,US",04/08/2005 00:00:00,37.1,37.1,37.1,35.9,95.13,,7.0,,19.0,31.7,0.0,,0.0,6.2,100.0,1010.8,Mist,44.4759,-73.2128,"Burlington, VT, United States","Burlington, VT, United States",,Overcast
"Burlington,VT,US",04/08/2005 01:00:00,38.0,38.0,38.0,35.0,88.66,,5.9,,39.0,33.5,0.0,,0.0,8.1,100.0,1011.2,,44.4759,-73.2128,"Burlington, VT, United States","Burlington, VT, United States",,Overcast
"Burlington,VT,US",04/08/2005 02:00:00,38.0,38.0,38.0,35.9,91.86,,8.0,21.9,9.0,32.1,0.0,,0.0,9.9,100.0,1011.5,,44.4759,-73.2128,"Burlington, VT, United States","Burlington, VT, United States",,Overcast
"Burlington,VT,US",04/08/2005 03:00:00,38.9,38.9,38.9,35.8,88.7,,13.8,,359.0,30.8,0.0,,0.0,8.7,100.0,1011.9,,44.4759,-73.2128,"Burlington, VT, United States","Burlington, VT, United States",,Overcast
"Burlington,VT,US",04/08/2005 04:00:00,38.0,38.0,38.0,35.8,91.86,,6.9,,349.0,32.8,0.0,,0.0,9.9,100.0,1012.2,,44.4759,-73.2128,"Burlington, VT, United States","Burlington, VT, United States",,Overcast
"Burlington,VT,US",04/08/2005 05:00:00,37.1,37.1,37.1,35.0,91.83,,5.8,,19.0,32.4,0.0,,0.0,9.9,90.1,1012.9,,44.4759,-73.2128,"Burlington, VT, United States","Burlington, VT, United States",,Overcast
"Burlington,VT,US",04/08/2005 06:00:00,35.9,35.9,35.9,34.1,93.07,,3.4,,68.0,33.2,0.0,,0.0,9.9,30.4,1013.5,,44.4759,-73.2128,"Burlington, VT, United States","Burlington, VT, United States",,Partially cloudy
"Burlington,VT,US",04/08/2005 07:00:00,34.1,34.1,34.1,33.2,96.43,,3.3,,120.0,31.2,0.0,,0.0,9.9,30.5,1014.2,,44.4759,-73.2128,"Burlington, VT, United States","Burlington, VT, United States",,Partially cloudy
"Burlington,VT,US",04/08/2005 08:00:00,38.9,38.9,38.9,34.1,82.61,,5.8,,110.0,34.6,0.0,,0.0,9.9,0.2,1014.9,,44.4759,-73.2128,"Burlington, VT, United States","Burlington, VT, United States",,Clear
"Burlington,VT,US",04/08/2005 09:00:00,42.1,42.1,42.1,34.1,72.93,,3.4,,98.0,40.4,0.0,,0.0,9.9,29.8,1014.9,,44.4759,-73.2128,"Burlington, VT, United States","Burlington, VT, United States",,Partially cloudy
"Burlington,VT,US",04/08/2005 10:00:00,44.8,44.8,44.8,35.0,68.13,,0.1,,250.0,,0.0,,0.0,9.9,89.4,1015.2,,44.4759,-73.2128,"Burlington, VT, United States","Burlington, VT, United States",,Overcast
"Burlington,VT,US",04/08/2005 11:00:00,47.9,47.9,47.9,35.0,60.67,,5.8,,191.0,45.2,0.0,,0.0,9.9,49.6,1015.6,,44.4759,-73.2128,"Burlington, VT, United States","Burlington, VT, United States",,Partially cloudy
"Burlington,VT,US",04/08/2005 12:00:00,51.1,51.1,51.1,34.1,51.97,,8.1,,330.0,,0.0,,0.0,9.9,49.6,1014.9,,44.4759,-73.2128,"Burlington, VT, United States","Burlington, VT, United States",,Partially cloudy
"Burlington,VT,US",04/08/2005 13:00:00,52.0,52.0,52.0,35.0,52.05,,12.7,,320.0,,0.0,,0.0,9.9,90.0,1015.6,,44.4759,-73.2128,"Burlington, VT, United States","Burlington, VT, United States",,Overcast
"Burlington,VT,US",04/08/2005 14:00:00,51.2,51.2,51.2,34.9,53.71,,12.7,,359.0,,0.0,,0.0,9.9,89.7,1015.9,,44.4759,-73.2128,"Burlington, VT, United States","Burlington, VT, United States",,Overcast
"Burlington,VT,US",04/08/2005 15:00:00,47.1,47.1,47.1,38.0,70.51,,9.2,,350.0,42.7,0.01,,0.0,6.2,90.1,1016.3,Light Rain,44.4759,-73.2128,"Burlington, VT, United States","Burlington, VT, United States",,"Rain, Overcast"
"Burlington,VT,US",04/08/2005 16:00:00,50.1,50.1,50.1,34.9,55.86,,8.1,,290.0,,0.0,,0.0,9.9,90.1,1015.9,,44.4759,-73.2128,"Burlington, VT, United States","Burlington, VT, United States",,Overcast
"Burlington,VT,US",04/08/2005 17:00:00,52.9,52.9,52.9,29.1,39.72,,8.1,,300.0,,0.0,,0.0,9.9,90.0,1016.3,,44.4759,-73.2128,"Burlington, VT, United States","Burlington, VT, United States",,Overcast
"Burlington,VT,US",04/08/2005 18:00:00,50.1,50.1,50.1,29.0,44.08,,8.1,,359.0,,0.0,,0.0,9.9,89.4,1016.6,,44.4759,-73.2128,"Burlington, VT, United States","Burlington, VT, United States",,Overcast
"Burlington,VT,US",04/08/2005 19:00:00,51.1,51.1,51.1,28.1,40.85,,8.1,,320.0,,0.0,,0.0,9.9,89.4,1016.9,,44.4759,-73.2128,"Burlington, VT, United States","Burlington, VT, United States",,Overcast
"Burlington,VT,US",04/08/2005 20:00:00,48.7,48.7,48.7,29.0,46.25,,6.9,,330.0,45.7,0.0,,0.0,9.9,89.4,1017.6,,44.4759,-73.2128,"Burlington, VT, United States","Burlington, VT, United States",,Overcast
"Burlington,VT,US",04/08/2005 21:00:00,46.1,46.1,46.1,26.9,46.86,,8.0,,350.0,42.0,0.0,,0.0,9.9,89.7,1018.6,,44.4759,-73.2128,"Burlington, VT, United States","Burlington, VT, United States",,Overcast
"Burlington,VT,US",04/08/2005 22:00:00,43.9,43.9,43.9,26.9,50.86,,0.0,,28.0,,0.0,,0.0,9.9,49.9,1019.3,,44.4759,-73.2128,"Burlington, VT, United States","Burlington, VT, United States",,Partially cloudy
"Burlington,VT,US",04/08/2005 23:00:00,38.9,38.9,38.9,28.1,64.88,,0.0,,9.0,,0.0,,0.0,9.9,0.4,1019.6,,44.4759,-73.2128,"Burlington, VT, United States","Burlington, VT, United States",,Clear
"Houlton,ME,US",04/08/2005 00:00:00,35.9,35.9,35.9,34.1,93.07,,3.4,,191.0,33.2,0.05,,0.0,8.1,100.0,1003.4,Light Rain,46.1241,-67.8398,"Houlton, ME, United States","Houlton, ME, United States",,"Rain, Overcast"
"Houlton,ME,US",04/08/2005 01:00:00,37.1,37.1,37.1,35.0,91.79,,4.7,,360.0,33.3,0.0,,0.0,9.9,100.0,1002.7,,46.1241,-67.8398,"Houlton, ME, United States","Houlton, ME, United States",,Overcast
"Houlton,ME,US",04/08/2005 02:00:00,35.9,35.9,35.9,35.0,96.46,,5.8,,340.0,31.0,0.0,,0.0,3.7,100.0,1002.7,Mist,46.1241,-67.8398,"Houlton, ME, United States","Houlton, ME, United States",,Overcast
"Houlton,ME,US",04/08/2005 03:00:00,35.9,35.9,35.9,35.9,99.95,,4.7,,210.0,31.9,0.0,,0.0,0.7,100.0,1002.7,Fog,46.1241,-67.8398,"Houlton, ME, United States","Houlton, ME, United States",,Overcast
"Houlton,ME,US",04/08/2005 04:00:00,35.9,35.9,35.9,34.1,93.07,,15.0,,300.0,26.5,0.0,,0.0,9.9,100.0,1003.4,,46.1241,-67.8398,"Houlton, ME, United States","Houlton, ME, United States",,Overcast
"Houlton,ME,US",04/08/2005 05:00:00,34.1,34.1,34.1,32.1,92.35,,11.4,,320.0,25.6,0.0,,0.0,9.9,100.0,1004.7,,46.1241,-67.8398,"Houlton, ME, United States","Houlton, ME, United States",,Overcast
"Houlton,ME,US",04/08/2005 06:00:00,34.1,34.1,34.1,32.1,92.33,,9.2,,320.0,26.7,0.0,,0.0,9.9,100.0,1005.8,,46.1241,-67.8398,"Houlton, ME, United States","Houlton, ME, United States",,Overcast
"Houlton,ME,US",04/08/2005 07:00:00,34.1,34.1,34.1,30.8,87.76,,10.3,,310.0,26.1,0.0,,0.0,9.9,100.0,1007.1,,46.1241,-67.8398,"Houlton, ME, United States","Houlton, ME, United States",,Overcast
"Houlton,ME,US",04/08/2005 08:00:00,35.0,35.0,35.0,30.8,84.68,,10.3,,320.0,27.3,0.0,,0.0,9.9,100.0,1008.1,,46.1241,-67.8398,"Houlton, ME, United States","Houlton, ME, United States",,Overcast
"Houlton,ME,US",04/08/2005 09:00:00,35.0,35.0,35.0,30.8,84.68,,9.2,,330.0,27.8,0.0,,0.0,9.9,100.0,1008.8,,46.1241,-67.8398,"Houlton, ME, United States","Houlton, ME, United States",,Overcast
"Houlton,ME,US",04/08/2005 10:00:00,35.9,35.9,35.9,30.8,81.7,,10.3,,310.0,28.4,0.0,,0.0,9.9,100.0,1009.8,,46.1241,-67.8398,"Houlton, ME, United States","Houlton, ME, United States",,Overcast
"Houlton,ME,US",04/08/2005 11:00:00,38.0,38.0,38.0,30.8,75.02,,8.0,,320.0,32.2,0.0,,0.0,9.9,100.0,1010.2,,46.1241,-67.8398,"Houlton, ME, United States","Houlton, ME, United States",,Overcast
"Houlton,ME,US",04/08/2005 12:00:00,43.1,43.1,43.1,32.1,64.93,,9.2,,350.0,37.8,0.0,,0.0,9.9,49.9,1010.2,,46.1241,-67.8398,"Houlton, ME, United States","Houlton, ME, United States",,Partially cloudy
"Houlton,ME,US",04/08/2005 13:00:00,47.0,47.0,47.0,30.8,53.13,,4.7,,320.0,44.9,0.0,,0.0,9.9,99.7,1010.5,,46.1241,-67.8398,"Houlton, ME, United States","Houlton, ME, United States",,Overcast
"Houlton,ME,US",04/08/2005 14:00:00,48.8,48.8,48.8,26.9,42.26,,6.9,,270.0,45.8,0.0,,0.0,9.9,0.1,1009.8,,46.1241,-67.8398,"Houlton, ME, United States","Houlton, ME, United States",,Clear
"Houlton,ME,US",04/08/2005 15:00:00,51.2,51.2,51.2,25.1,35.96,,9.2,,310.0,,0.0,,0.0,9.9,0.3,1009.8,,46.1241,-67.8398,"Houlton, ME, United States","Houlton, ME, United States",,Clear
"Houlton,ME,US",04/08/2005 16:00:00,50.1,50.1,50.1,24.2,36.07,,10.3,,300.0,,0.0,,0.0,9.9,90.0,1009.8,,46.1241,-67.8398,"Houlton, ME, United States","Houlton, ME, United States",,Overcast
"Houlton,ME,US",04/08/2005 17:00:00,52.9,52.9,52.9,26.0,34.95,,8.1,,330.0,,0.0,,0.0,9.9,90.0,1010.2,,46.1241,-67.8398,"Houlton, ME, United States","Houlton, ME, United States",,Overcast
"Houlton,ME,US",04/08/2005 18:00:00,47.0,47.0,47.0,28.1,47.58,,17.2,,270.0,40.3,0.0,,0.0,9.9,89.8,1011.5,,46.1241,-67.8398,"Houlton, ME, United States","Houlton, ME, United States",,Overcast
"Houlton,ME,US",04/08/2005 19:00:00,43.1,43.1,43.1,32.1,64.96,,3.4,,330.0,41.5,0.01,,0.0,9.9,0.3,1011.5,,46.1241,-67.8398,"Houlton, ME, United States","Houlton, ME, United States",,Rain
"Houlton,ME,US",04/08/2005 20:00:00,42.2,42.2,42.2,29.9,61.61,,8.0,,290.0,37.2,0.0,,0.0,9.9,50.1,1012.5,,46.1241,-67.8398,"Houlton, ME, United States","Houlton, ME, United States",,Partially cloudy
"Houlton,ME,US",04/08/2005 21:00:00,39.8,39.8,39.8,25.1,55.26,,6.9,,230.0,35.0,0.0,,0.0,9.9,0.3,1013.5,,46.1241,-67.8398,"Houlton, ME, United States","Houlton, ME, United States",,Clear
"Houlton,ME,US",04/08/2005 22:00:00,35.9,35.9,35.9,25.1,64.5,,6.9,,260.0,30.2,0.0,,0.0,9.9,0.3,1014.2,,46.1241,-67.8398,"Houlton, ME, United States","Houlton, ME, United States",,Clear
"Houlton,ME,US",04/08/2005 23:00:00,34.1,34.1,34.1,24.2,66.73,,5.8,,280.0,28.8,0.0,,0.0,9.9,0.3,1014.2,,46.1241,-67.8398,"Houlton, ME, United States","Houlton, ME, United States",,Clear
"Fredericton,NB,CA",04/08/2005 00:00:00,37.5,37.5,37.5,37.5,100.0,,4.7,,50.0,33.8,0.0,,0.0,3.7,100.0,1005.8,Light Rain,45.9606,-66.6391,"Fredericton, NB, Canada","Fredericton, NB, Canada",,Overcast
"Fredericton,NB,CA",04/08/2005 01:00:00,37.5,37.5,37.5,37.5,100.0,,3.4,,60.0,35.1,0.0,,0.0,3.1,100.0,1005.1,Light Rain,45.9606,-66.6391,"Fredericton, NB, Canada","Fredericton, NB, Canada",,Overcast
"Fredericton,NB,CA",04/08/2005 02:00:00,35.7,35.7,35.7,35.7,100.0,,4.7,,60.0,31.7,0.0,,0.0,1.2,100.0,1003.7,Light Rain,45.9606,-66.6391,"Fredericton, NB, Canada","Fredericton, NB, Canada",,Overcast
"Fredericton,NB,CA",04/08/2005 03:00:00,35.0,35.0,35.0,35.0,100.0,,3.4,,330.0,32.2,0.08,,0.0,0.6,,1004.4,Light Rain,45.9606,-66.6391,"Fredericton, NB, Canada","Fredericton, NB, Canada",,Rain
"Fredericton,NB,CA",04/08/2005 04:00:00,33.9,33.9,33.9,33.9,100.0,,4.7,,10.0,29.6,0.0,,0.0,1.2,,1003.1,Light Rain,45.9606,-66.6391,"Fredericton, NB, Canada","Fredericton, NB, Canada",,Clear
"Fredericton,NB,CA",04/08/2005 05:00:00,33.9,33.9,33.9,33.9,100.0,,2.2,,20.0,,0.0,,0.0,8.7,100.0,1003.4,,45.9606,-66.6391,"Fredericton, NB, Canada","Fredericton, NB, Canada",,Overcast
"Fredericton,NB,CA",04/08/2005 06:00:00,33.9,33.9,33.9,33.9,100.0,,2.2,,330.0,,0.0,,0.0,1.9,100.0,1004.1,"Mist, Light Drizzle",45.9606,-66.6391,"Fredericton, NB, Canada","Fredericton, NB, Canada",,Overcast
"Fredericton,NB,CA",04/08/2005 07:00:00,33.9,33.9,33.9,33.9,100.0,,2.2,,290.0,,0.0,,0.0,1.2,100.0,1005.1,"Mist, Light Drizzle",45.9606,-66.6391,"Fredericton, NB, Canada","Fredericton, NB, Canada",,Overcast
"Fredericton,NB,CA",04/08/2005 08:00:00,33.9,33.9,33.9,33.9,100.0,,6.9,,300.0,27.8,0.0,,0.0,1.2,100.0,1006.4,"Mist, Light Drizzle",45.9606,-66.6391,"Fredericton, NB, Canada","Fredericton, NB, Canada",,Overcast
"Fredericton,NB,CA",04/08/2005 09:00:00,35.7,35.7,35.7,35.7,100.0,,8.1,,290.0,29.3,0.16,,0.0,8.7,100.0,1007.5,,45.9606,-66.6391,"Fredericton, NB, Canada","Fredericton, NB, Canada",,"Rain, Overcast"
"Fredericton,NB,CA",04/08/2005 10:00:00,37.5,37.5,37.5,35.7,93.14,,12.8,,290.0,29.4,0.0,,0.0,14.9,100.0,1008.5,,45.9606,-66.6391,"Fredericton, NB, Canada","Fredericton, NB, Canada",,Overcast
"Fredericton,NB,CA",04/08/2005 11:00:00,41.1,41.1,41.1,33.9,75.36,,15.0,,310.0,33.2,0.0,,0.0,14.9,90.0,1008.8,,45.9606,-66.6391,"Fredericton, NB, Canada","Fredericton, NB, Canada",,Overcast
"Fredericton,NB,CA",04/08/2005 12:00:00,41.1,41.1,41.1,35.7,80.95,,12.8,,290.0,34.0,0.0,,0.0,14.9,90.0,1009.8,,45.9606,-66.6391,"Fredericton, NB, Canada","Fredericton, NB, Canada",,Overcast
"Fredericton,NB,CA",04/08/2005 13:00:00,42.9,42.9,42.9,35.7,75.53,,11.4,,290.0,36.7,0.0,,0.0,14.9,90.0,1010.2,,45.9606,-66.6391,"Fredericton, NB, Canada","Fredericton, NB, Canada",,Overcast
"Fredericton,NB,CA",04/08/2005 14:00:00,44.7,44.7,44.7,33.9,65.64,,12.8,,290.0,38.5,0.0,,0.0,14.9,90.0,1010.5,,45.9606,-66.6391,"Fredericton, NB, Canada","Fredericton, NB, Canada",,Overcast
"Fredericton,NB,CA",04/08/2005 15:00:00,47.6,47.6,47.6,35.0,61.45,,11.4,,280.0,42.6,0.02,,0.0,8.7,40.0,1010.5,,45.9606,-66.6391,"Fredericton, NB, Canada","Fredericton, NB, Canada",,"Rain, Partially cloudy"
"Fredericton,NB,CA",04/08/2005 16:00:00,50.1,50.1,50.1,32.1,49.85,,11.4,,280.0,,0.0,,0.0,8.7,0.0,1010.5,,45.9606,-66.6391,"Fredericton, NB, Canada","Fredericton, NB, Canada",,Clear
"Fredericton,NB,CA",04/08/2005 17:00:00,51.9,51.9,51.9,32.1,46.63,,11.4,,310.0,,0.0,,0.0,8.7,30.0,1010.8,,45.9606,-66.6391,"Fredericton, NB, Canada","Fredericton, NB, Canada",,Partially cloudy
"Fredericton,NB,CA",04/08/2005 18:00:00,51.9,51.9,51.9,28.5,40.29,,10.3,,310.0,,0.0,,0.0,8.7,30.0,1011.2,,45.9606,-66.6391,"Fredericton, NB, Canada","Fredericton, NB, Canada",,Partially cloudy
"Fredericton,NB,CA",04/08/2005 19:00:00,50.1,50.1,50.1,28.5,43.07,,3.4,,320.0,,0.0,,0.0,8.7,0.0,1011.5,,45.9606,-66.6391,"Fredericton, NB, Canada","Fredericton, NB, Canada",,Clear
"Fredericton,NB,CA",04/08/2005 20:00:00,44.7,44.7,44.7,28.5,52.76,,0.0,,,,0.0,,0.0,8.7,30.0,1011.5,,45.9606,-66.6391,"Fredericton, NB, Canada","Fredericton, NB, Canada",,Partially cloudy
"Fredericton,NB,CA",04/08/2005 21:00:00,46.7,46.7,46.7,31.4,55.03,,9.2,,270.0,42.2,0.02,,0.0,8.7,100.0,1012.9,Light Rain,45.9606,-66.6391,"Fredericton, NB, Canada","Fredericton, NB, Canada",,"Rain, Overcast"
"Fredericton,NB,CA",04/08/2005 22:00:00,44.7,44.7,44.7,30.3,56.78,,8.1,,270.0,40.3,0.0,,0.0,8.7,90.0,1013.2,,45.9606,-66.6391,"Fredericton, NB, Canada","Fredericton, NB, Canada",,Overcast
"Gander,NL,CA",04/08/2005 00:00:00,33.9,33.9,33.9,30.3,86.5,,8.1,,220.0,27.1,0.0,,14.43,,,,,48.9568,-54.6092,"Gander, NL, Canada","Gander, NL, Canada",,Clear
"Gander,NL,CA",04/08/2005 01:00:00,32.1,32.1,32.1,30.3,92.98,,4.5,,230.0,27.7,0.0,,14.34,,,,,48.9568,-54.6092,"Gander, NL, Canada","Gander, NL, Canada",,Clear
"Gander,NL,CA",04/08/2005 02:00:00,32.1,32.1,32.1,30.3,92.98,,5.6,,220.0,26.7,0.0,,14.26,,,,,48.9568,-54.6092,"Gander, NL, Canada","Gander, NL, Canada",,Clear
"Gander,NL,CA",04/08/2005 03:00:00,33.2,33.2,33.2,31.4,93.01,,4.7,,210.0,28.7,0.0,,14.17,,,,,48.9568,-54.6092,"Gander, NL, Canada","Gander, NL, Canada",,Clear
"Gander,NL,CA",04/08/2005 04:00:00,33.9,33.9,33.9,32.1,93.04,,4.5,,200.0,29.8,0.0,,14.09,,,,,48.9568,-54.6092,"Gander, NL, Canada","Gander, NL, Canada",,Clear
"Gander,NL,CA",04/08/2005 05:00:00,32.1,32.1,32.1,32.1,100.0,,5.6,,190.0,26.7,0.0,,14.0,,,,,48.9568,-54.6092,"Gander, NL, Canada","Gander, NL, Canada",,Clear
"Gander,NL,CA",04/08/2005 06:00:00,32.1,32.1,32.1,32.1,100.0,,6.7,,170.0,25.8,0.0,,13.92,,,,,48.9568,-54.6092,"Gander, NL, Canada","Gander, NL, Canada",,Clear
"Gander,NL,CA",04/08/2005 07:00:00,33.9,33.9,33.9,32.1,93.04,,9.2,,170.0,26.5,0.0,,13.83,,,,,48.9568,-54.6092,"Gander, NL, Canada","Gander, NL, Canada",,Clear
"Gander,NL,CA",04/08/2005 08:00:00,33.9,33.9,33.9,33.9,100.0,,5.6,,160.0,28.8,0.0,,13.75,,,,,48.9568,-54.6092,"Gander, NL, Canada","Gander, NL, Canada",,Clear
"Gander,NL,CA",04/08/2005 09:00:00,37.5,37.5,37.5,36.8,97.21,,11.4,,190.0,29.9,0.0,,0.0,,,,,48.9568,-54.6092,"Gander, NL, Canada","Gander, NL, Canada",,Clear
"Gander,NL,CA",04/08/2005 10:00:00,41.1,41.1,41.1,39.3,93.25,,9.2,,190.0,35.4,0.0,,0.0,,,,,48.9568,-54.6092,"Gander, NL, Canada","Gander, NL, Canada",,Clear
"Gander,NL,CA",04/08/2005 11:00:00,42.9,42.9,42.9,41.1,93.3,,8.1,,190.0,38.1,0.0,,0.0,,,,,48.9568,-54.6092,"Gander, NL, Canada","Gander, NL, Canada",,Clear
"Gander,NL,CA",04/08/2005 12:00:00,42.9,42.9,42.9,42.9,100.0,,10.3,,190.0,37.1,0.0,,0.0,,,,,48.9568,-54.6092,"Gander, NL, Canada","Gander, NL, Canada",,Clear
"Gander,NL,CA",04/08/2005 13:00:00,44.7,44.7,44.7,42.9,93.35,,12.5,,190.0,38.6,0.0,,0.0,,,,,48.9568,-54.6092,"Gander, NL, Canada","Gander, NL, Canada",,Clear
"Gander,NL,CA",04/08/2005 14:00:00,48.3,48.3,48.3,46.5,93.46,,13.6,,210.0,42.8,0.0,,0.0,,,,,48.9568,-54.6092,"Gander, NL, Canada","Gander, NL, Canada",,Clear
"Gander,NL,CA",04/08/2005 15:00:00,46.7,46.7,46.7,46.1,97.98,,18.3,,210.0,39.6,0.0,,0.0,,,,,48.9568,-54.6092,"Gander, NL, Canada","Gander, NL, Canada",,Clear
"Gander,NL,CA",04/08/2005 16:00:00,46.5,46.5,46.5,44.7,93.41,,14.8,,210.0,40.2,0.0,,0.0,,,,,48.9568,-54.6092,"Gander, NL, Canada","Gander, NL, Canada",,Clear
"Gander,NL,CA",04/08/2005 17:00:00,44.7,44.7,44.7,42.9,93.35,,18.3,,220.0,37.0,0.0,,0.0,,,,,48.9568,-54.6092,"Gander, NL, Canada","Gander, NL, Canada",,Clear
"Gander,NL,CA",04/08/2005 18:00:00,42.9,42.9,42.9,41.1,93.3,,17.2,,220.0,34.9,0.0,,0.0,,,,,48.9568,-54.6092,"Gander, NL, Canada","Gander, NL, Canada",,Clear
"Gander,NL,CA",04/08/2005 19:00:00,41.1,41.1,41.1,41.1,100.0,,12.5,,220.0,34.0,0.0,,0.0,,,,,48.9568,-54.6092,"Gander, NL, Canada","Gander, NL, Canada",,Clear
"Gander,NL,CA",04/08/2005 20:00:00,39.3,39.3,39.3,39.3,100.0,,13.6,,210.0,31.4,0.0,,0.0,,,,,48.9568,-54.6092,"Gander, NL, Canada","Gander, NL, Canada",,Clear
"Gander,NL,CA",04/08/2005 21:00:00,38.9,38.9,38.9,38.0,96.54,,13.9,,230.0,30.8,0.04,,0.0,,,,,48.9568,-54.6092,"Gander, NL, Canada","Gander, NL, Canada",,Rain
"Gander,NL,CA",04/08/2005 22:00:00,39.3,39.3,39.3,37.5,93.2,,13.6,,250.0,31.4,0.0,,0.0,,,,,48.9568,-54.6092,"Gander, NL, Canada","Gander, NL, Canada",,Clear
